country_code,country_language,country,state,state_code,district,district_code,sub_district,sub_district_code,village_name,village_code,census_code,region,language,pincode,risk_category
IN,Hindi,India,RAJASTHAN,08,JHUJHUNU,103,KHETRI,0490,BASAI,071513,081030490071513,North,Rajasthani,333036,A
IN,Hindi,India,RAJASTHAN,08,BHARATPUR,105,KAMAN,0506,BASAI DAHRA MAI LOHAGARH,073981,081050506073981,North,Rajasthani,321023,A
IN,Hindi,India,RAJASTHAN,08,BIKANER,101,CHHATARGARH,0479,KAKRALA,069830,081010479069830,North,Rajasthani,334021,A
IN,Hindi,India,RAJASTHAN,08,BHILWARA,122,KOTRI,0635,KAKROLIYA MAFI,095750,081220635095750,North,Rajasthani,311603,A
IN,Hindi,India,RAJASTHAN,08,KARAULI,107,SAPOTRA,0525,KALA GURHA,076971,081070525076971,North,Rajasthani,322218,A
IN,Hindi,India,RAJASTHAN,08,AJMER,119,BEAWAR,0609,KALADANTA,091885,081190609091885,North,Rajasthani,305926,A
IN,Hindi,India,RAJASTHAN,08,ALWAR,104,BEHROR,0493,UMRAOGARH,071820,081040493071820,North,Rajasthani,301705,A
IN,Hindi,India,RAJASTHAN,08,UDAIPUR,130,GOGUNDA,0686,UMROD,105624,081300686105624,North,Rajasthani,313708,A
IN,Hindi,India,RAJASTHAN,08,NAGAUR,112,PARBATSAR,0564,BANWAL,083594,081120564083594,North,Rajasthani,341512,A
IN,Hindi,India,RAJASTHAN,08,BHILWARA,122,MANDALGARH,0637,MANGTALA,096130,081220637096130,North,Rajasthani,311606,A
IN,Hindi,India,RAJASTHAN,08,BARMER,115,SHEO,0577,MANIHARI,086833,081150577086833,North,Rajasthani,344705,A
IN,Hindi,India,RAJASTHAN,08,BARAN,128,SHAHBAD,0675,BANWARIPURA,103396,081280675103396,North,Rajasthani,325217,A
IN,Hindi,India,RAJASTHAN,08,NAGAUR,112,NAWA,0566,ULANA,083908,081120566083908,North,Rajasthani,341509,A
IN,Hindi,India,RAJASTHAN,08,SAWAI MADHOPUR,108,SAWAI MADHOPUR,0531,ULIYANA,077665,081080531077665,North,Rajasthani,322029,A
IN,Hindi,India,RAJASTHAN,08,BHILWARA,122,SAHARA,0633,ULLAI,095426,081220633095426,North,Rajasthani,311805,A
IN,Hindi,India,RAJASTHAN,08,JODHPUR,113,OSIAN,0568,UMADESAR,084685,081130568084685,North,Rajasthani,342312,A
IN,Hindi,India,RAJASTHAN,08,BANSWARA,125,KUSHALGARH,0654,UMAR JHONKA,099771,081250654099771,North,Rajasthani,327801,A
IN,Hindi,India,RAJASTHAN,08,UDAIPUR,130,GIRWA,0689,UMARIYA,106553,081300689106553,North,Rajasthani,313031,A
IN,Hindi,India,RAJASTHAN,08,RAJSAMAND,123,AMET,0641,MANAKDEH,096710,081230641096710,North,Rajasthani,313331,A
IN,Hindi,India,RAJASTHAN,08,CHURU,102,SARDARSHAHAR,0483,MANAPARSAR,070283,081020483070283,North,Rajasthani,331411,A
IN,Hindi,India,RAJASTHAN,08,JHALAWAR,129,JHALRAPATAN,0679,MANDA,104133,081290679104133,North,Rajasthani,326036,A
IN,Hindi,India,RAJASTHAN,08,KOTA,127,RAMGANJ MANDI,0668,MANDA,102292,081270668102292,North,Rajasthani,326519,A
IN,Hindi,India,RAJASTHAN,08,KARAULI,107,MANDRAIL,0524,MANDRAIL,076863,081070524076863,North,Rajasthani,322251,A
IN,Hindi,India,RAJASTHAN,08,BUNDI,121,BUNDI,0626,MANDRI,094504,081210626094504,North,Rajasthani,323021,A
IN,Hindi,India,RAJASTHAN,08,JHUJHUNU,103,KHETRI,0490,MANDRI,071499,081030490071499,North,Rajasthani,332746,A
IN,Hindi,India,RAJASTHAN,08,DUNGARPUR,124,SIMALWARA,0649,MANDVA,098320,081240649098320,North,Rajasthani,314403,A
IN,Hindi,India,RAJASTHAN,08,DUNGARPUR,124,DUNGARPUR,0646,MANDWIYA,097514,081240646097514,North,Rajasthani,314801,A
IN,Hindi,India,RAJASTHAN,08,KOTA,127,SANGOD,0669,MANGALPURA,102395,081270669102395,North,Rajasthani,325602,A
IN,Hindi,India,RAJASTHAN,08,NAGAUR,112,NAWA,0566,MANGALPURA,083795,081120566083795,North,Rajasthani,341508,A
IN,Hindi,India,RAJASTHAN,08,SIKAR,111,NEEM-KA-THANA,0556,MANGALPURA,082272,081110556082272,North,Rajasthani,332708,A
IN,Hindi,India,RAJASTHAN,08,NAGAUR,112,MAKRANA,0565,MANGALWA,083612,081120565083612,North,Rajasthani,341302,A
IN,Hindi,India,RAJASTHAN,08,CHURU,102,SARDARSHAHAR,0483,MANGASAR,070453,081020483070453,North,Rajasthani,331022,A
IN,Hindi,India,RAJASTHAN,08,BARMER,115,GUDHA MALANI,0581,MALIYON KI DHANI,087957,081150581087957,North,Rajasthani,344031,A
IN,Hindi,India,RAJASTHAN,08,BIKANER,101,LUNKARANSAR,0475,MALKISAR,069304,081010475069304,North,Rajasthani,334604,A
IN,Hindi,India,RAJASTHAN,08,SIKAR,111,NEEM-KA-THANA,0556,MALNAGAR,082268,081110556082268,North,Rajasthani,332713,A
IN,Hindi,India,RAJASTHAN,08,DHOLPUR,106,SEPAU,0517,MALPUR,075834,081060517075834,North,Rajasthani,328023,A
IN,Hindi,India,RAJASTHAN,08,JALOR,116,AHORE,0586,MALPURA,089240,081160586089240,North,Rajasthani,307029,A
IN,Hindi,India,RAJASTHAN,08,CHURU,102,RAJGARH,0482,MALWAS,070065,081020482070065,North,Rajasthani,331701,A
IN,Hindi,India,RAJASTHAN,08,CHITTORGARH,126,NIMBAHERA,0663,KALANDAR GARH,101425,081260663101425,North,Rajasthani,312601,A
IN,Hindi,India,RAJASTHAN,08,AJMER,119,KEKRI,0614,KALERA KANWARJI,092461,081190614092461,North,Rajasthani,305407,A
IN,Hindi,India,RAJASTHAN,08,AJMER,119,KEKRI,0614,KALERA KRISHNA GOPAL,092429,081190614092429,North,Rajasthani,305408,A
IN,Hindi,India,RAJASTHAN,08,BIKANER,101,BIKANER,0473,BASI SAHAJBARDARAN,069055,081010473069055,North,Rajasthani,334802,A
IN,Hindi,India,RAJASTHAN,08,PALI,118,SOJAT,0599,BASNI SURAYTA,090640,081180599090640,North,Rajasthani,306104,A
IN,Hindi,India,RAJASTHAN,08,DAUSA,109,BASWA,0533,BASRA,078040,081090533078040,North,Rajasthani,303313,A
IN,Hindi,India,RAJASTHAN,08,RAJSAMAND,123,KUMBHALGARH,0642,UMARWAS,096824,081230642096824,North,Rajasthani,313333,A
IN,Hindi,India,RAJASTHAN,08,NAGAUR,112,PARBATSAR,0564,MANDAN,083516,081120564083516,North,Rajasthani,341503,A
IN,Hindi,India,RAJASTHAN,08,JALOR,116,RANIWARA,0591,MANDARDI,089831,081160591089831,North,Rajasthani,343040,A
IN,Hindi,India,RAJASTHAN,08,KOTA,127,DIGOD,0666,MANDARIYA,101874,081270666101874,North,Rajasthani,325204,A
IN,Hindi,India,RAJASTHAN,08,HANUMANGARH,100,NOHAR,0471,MANDARPURA,068759,081000471068759,North,Rajasthani,335523,A
IN,Hindi,India,RAJASTHAN,08,JAIPUR,110,PHAGI,0544,MANDAWARI,079925,081100544079925,North,Rajasthani,303005,A
IN,Hindi,India,RAJASTHAN,08,JAIPUR,110,CHAKSU,0550,MANDAWARI,080953,081100550080953,North,Rajasthani,303908,A
IN,Hindi,India,RAJASTHAN,08,SIROHI,117,SIROHI,0593,MANDAWARIYA,089952,081170593089952,North,Rajasthani,307801,A
IN,Hindi,India,RAJASTHAN,08,ALWAR,104,BANSUR,0500,MANDEEJA BASAI,072991,081040500072991,North,Rajasthani,301402,A
IN,Hindi,India,RAJASTHAN,08,BHILWARA,122,RAIPUR,0632,MANDI,095345,081220632095345,North,Rajasthani,311803,A
IN,Hindi,India,RAJASTHAN,08,BHILWARA,122,RAIPUR,0632,MANDOL,095352,081220632095352,North,Rajasthani,311803,A
IN,Hindi,India,RAJASTHAN,08,SIKAR,111,NEEM-KA-THANA,0556,MANDOLI,082198,081110556082198,North,Rajasthani,332713,A
IN,Hindi,India,RAJASTHAN,08,UDAIPUR,130,GOGUNDA,0686,BANSRA,105742,081300686105742,North,Rajasthani,313705,A
IN,Hindi,India,RAJASTHAN,08,BHARATPUR,105,NADBAI,0509,NADBAI (M) WARD NO.-0001,8004960001,0810505098004960001,North,Rajasthani,321602,A
IN,Hindi,India,RAJASTHAN,08,BHARATPUR,105,NADBAI,0509,NADBAI (M) WARD NO.-0002,8004960002,0810505098004960002,North,Rajasthani,321602,A
IN,Hindi,India,RAJASTHAN,08,BHARATPUR,105,NADBAI,0509,NADBAI (M) WARD NO.-0003,8004960003,0810505098004960003,North,Rajasthani,321602,A
IN,Hindi,India,RAJASTHAN,08,BHARATPUR,105,NADBAI,0509,NADBAI (M) WARD NO.-0004,8004960004,0810505098004960004,North,Rajasthani,321602,A
IN,Hindi,India,RAJASTHAN,08,BHARATPUR,105,NADBAI,0509,NADBAI (M) WARD NO.-0005,8004960005,0810505098004960005,North,Rajasthani,321602,A
IN,Hindi,India,RAJASTHAN,08,BHARATPUR,105,NADBAI,0509,NADBAI (M) WARD NO.-0006,8004960006,0810505098004960006,North,Rajasthani,321602,A
IN,Hindi,India,RAJASTHAN,08,BHARATPUR,105,NADBAI,0509,NADBAI (M) WARD NO.-0007,8004960007,0810505098004960007,North,Rajasthani,321602,A
IN,Hindi,India,RAJASTHAN,08,BHARATPUR,105,NADBAI,0509,NADBAI (M) WARD NO.-0008,8004960008,0810505098004960008,North,Rajasthani,321602,A
IN,Hindi,India,RAJASTHAN,08,BHARATPUR,105,NADBAI,0509,NADBAI (M) WARD NO.-0009,8004960009,0810505098004960009,North,Rajasthani,321602,A
IN,Hindi,India,RAJASTHAN,08,BHARATPUR,105,NADBAI,0509,NADBAI (M) WARD NO.-0010,8004960010,0810505098004960010,North,Rajasthani,321602,A
IN,Hindi,India,RAJASTHAN,08,BHARATPUR,105,NADBAI,0509,NADBAI (M) WARD NO.-0011,8004960011,0810505098004960011,North,Rajasthani,321602,A
IN,Hindi,India,RAJASTHAN,08,BHARATPUR,105,NADBAI,0509,NADBAI (M) WARD NO.-0012,8004960012,0810505098004960012,North,Rajasthani,321602,A
IN,Hindi,India,RAJASTHAN,08,BHARATPUR,105,NADBAI,0509,NADBAI (M) WARD NO.-0013,8004960013,0810505098004960013,North,Rajasthani,321602,A
IN,Hindi,India,RAJASTHAN,08,BHARATPUR,105,NADBAI,0509,NADBAI (M) WARD NO.-0014,8004960014,0810505098004960014,North,Rajasthani,321602,A
IN,Hindi,India,RAJASTHAN,08,BHARATPUR,105,NADBAI,0509,NADBAI (M) WARD NO.-0015,8004960015,0810505098004960015,North,Rajasthani,321602,A
IN,Hindi,India,RAJASTHAN,08,BHARATPUR,105,NADBAI,0509,NADBAI (M) WARD NO.-0016,8004960016,0810505098004960016,North,Rajasthani,321602,A
IN,Hindi,India,RAJASTHAN,08,BHARATPUR,105,NADBAI,0509,NADBAI (M) WARD NO.-0017,8004960017,0810505098004960017,North,Rajasthani,321602,A
IN,Hindi,India,RAJASTHAN,08,BHARATPUR,105,NADBAI,0509,NADBAI (M) WARD NO.-0018,8004960018,0810505098004960018,North,Rajasthani,321602,A
IN,Hindi,India,RAJASTHAN,08,BHARATPUR,105,NADBAI,0509,NADBAI (M) WARD NO.-0019,8004960019,0810505098004960019,North,Rajasthani,321602,A
IN,Hindi,India,RAJASTHAN,08,BHARATPUR,105,NADBAI,0509,NADBAI (M) WARD NO.-0020,8004960020,0810505098004960020,North,Rajasthani,321602,A
IN,Hindi,India,RAJASTHAN,08,PRATAPGARH,131,CHHOTI SADRI,0698,INTON KA TALAB,108349,081310698108349,North,Rajasthani,312604,A
IN,Hindi,India,RAJASTHAN,08,BHARATPUR,105,WEIR,0512,IRNIYA,074880,081050512074880,North,Rajasthani,321601,A
IN,Hindi,India,RAJASTHAN,08,KARAULI,107,SAPOTRA,0525,AMRE KI GUWARI,077061,081070525077061,North,Rajasthani,322249,A
IN,Hindi,India,RAJASTHAN,08,SIROHI,117,REODAR,0596,HADMATIYA,090235,081170596090235,North,Rajasthani,307511,A
IN,Hindi,India,RAJASTHAN,08,CHITTORGARH,126,RAWATBHATA,0658,HADON KI MORVAN,100495,081260658100495,North,Rajasthani,323307,A
IN,Hindi,India,RAJASTHAN,08,JODHPUR,113,OSIAN,0568,JAGDAMBA NAGAR,084693,081130568084693,North,Rajasthani,342029,A
IN,Hindi,India,RAJASTHAN,08,BANSWARA,125,KUSHALGARH,0654,KANKRA KHURD DUNGRI,099735,081250654099735,North,Rajasthani,327601,A
IN,Hindi,India,RAJASTHAN,08,BHILWARA,122,BHILWARA,0634,KANOLI,095634,081220634095634,North,Rajasthani,311802,A
IN,Hindi,India,RAJASTHAN,08,KOTA,127,DIGOD,0666,KANWARPURA,101961,081270666101961,North,Rajasthani,325201,A
IN,Hindi,India,RAJASTHAN,08,BUNDI,121,NAINWA,0623,CHHOTIPARAP,093882,081210623093882,North,Rajasthani,323801,A
IN,Hindi,India,RAJASTHAN,08,BARMER,115,SHEO,0577,CHIBRA MAGRA,086884,081150577086884,North,Rajasthani,344701,A
IN,Hindi,India,RAJASTHAN,08,BANSWARA,125,BAGIDORA,0653,LALAWARA,099432,081250653099432,North,Rajasthani,327606,A
IN,Hindi,India,RAJASTHAN,08,NAGAUR,112,KHEENVSAR,0561,LALAWAS,083068,081120561083068,North,Rajasthani,341025,A
IN,Hindi,India,RAJASTHAN,08,CHITTORGARH,126,RASHMI,0655,GUDALIYA,099974,081260655099974,North,Rajasthani,312206,A
IN,Hindi,India,RAJASTHAN,08,BHARATPUR,105,NADBAI,0509,GUDAWALI,074472,081050509074472,North,Rajasthani,321642,A
IN,Hindi,India,RAJASTHAN,08,NAGAUR,112,KHEENVSAR,0561,GUDHA BHAGWAN DAS,083043,081120561083043,North,Rajasthani,341001,A
IN,Hindi,India,RAJASTHAN,08,NAGAUR,112,MAKRANA,0565,GUDLESAR,083723,081120565083723,North,Rajasthani,341504,A
IN,Hindi,India,RAJASTHAN,08,RAJSAMAND,123,NATHDWARA,0645,GUDLI,097428,081230645097428,North,Rajasthani,313202,A
IN,Hindi,India,RAJASTHAN,08,NAGAUR,112,NAWA,0566,GUGARWAR,083845,081120566083845,North,Rajasthani,341519,A
IN,Hindi,India,RAJASTHAN,08,PALI,118,BALI,0605,KAGRI,091285,081180605091285,North,Rajasthani,306116,A
IN,Hindi,India,RAJASTHAN,08,BHILWARA,122,SHAHPURA,0629,KAGSON KA KHERA,095008,081220629095008,North,Rajasthani,311404,A
IN,Hindi,India,RAJASTHAN,08,CHITTORGARH,126,BARI SADRI,0664,KAHARA CHAK,101629,081260664101629,North,Rajasthani,312403,A
IN,Hindi,India,RAJASTHAN,08,DHOLPUR,106,SEPAU,0517,KAIMARA,075842,081060517075842,North,Rajasthani,328027,A
IN,Hindi,India,RAJASTHAN,08,DUNGARPUR,124,DUNGARPUR,0646,GHATAU,097605,081240646097605,North,Rajasthani,314404,A
IN,Hindi,India,RAJASTHAN,08,BANSWARA,125,KUSHALGARH,0654,GHATIYA,099547,081250654099547,North,Rajasthani,327022,A
IN,Hindi,India,RAJASTHAN,08,BHARATPUR,105,PAHARI,0505,GHATMEEKA,073843,081050505073843,North,Rajasthani,321204,A
IN,Hindi,India,RAJASTHAN,08,PALI,118,DESURI,0603,GHENRI,091119,081180603091119,North,Rajasthani,306502,A
IN,Hindi,India,RAJASTHAN,08,BHILWARA,122,MANDALGARH,0637,FATEHPURA,096244,081220637096244,North,Rajasthani,311606,A
IN,Hindi,India,RAJASTHAN,08,DUNGARPUR,124,SIMALWARA,0649,FATEHPURA,098388,081240649098388,North,Rajasthani,314403,A
IN,Hindi,India,RAJASTHAN,08,CHITTORGARH,126,RASHMI,0655,HAMERPURA,099990,081260655099990,North,Rajasthani,312206,A
IN,Hindi,India,RAJASTHAN,08,CHITTORGARH,126,GANGRAR,0656,HAMERPURA,100085,081260656100085,North,Rajasthani,312901,A
IN,Hindi,India,RAJASTHAN,08,BARMER,115,RAMSAR,0583,KANTALIYA KA PAR,088476,081150583088476,North,Rajasthani,344502,A
IN,Hindi,India,RAJASTHAN,08,JHALAWAR,129,KHANPUR,0678,KANWALDA,103904,081290678103904,North,Rajasthani,326035,A
IN,Hindi,India,RAJASTHAN,08,BHARATPUR,105,KAMAN,0506,KANWARA,074064,081050506074064,North,Rajasthani,321022,A
IN,Hindi,India,RAJASTHAN,08,JAIPUR,110,CHAKSU,0550,KANWARPURA,081133,081100550081133,North,Rajasthani,303908,A
IN,Hindi,India,RAJASTHAN,08,SIKAR,111,DANTA RAMGARH,0554,KANWARPURA,081708,081110554081708,North,Rajasthani,332023,A
IN,Hindi,India,RAJASTHAN,08,PRATAPGARH,131,DHARIAWAD,0696,KAPARWAS,107970,081310696107970,North,Rajasthani,312626,A
IN,Hindi,India,RAJASTHAN,08,DUNGARPUR,124,DUNGARPUR,0646,KAPARWEL,097662,081240646097662,North,Rajasthani,314001,A
IN,Hindi,India,RAJASTHAN,08,BHILWARA,122,KOTRI,0635,HATHIPURA,095825,081220635095825,North,Rajasthani,311603,A
IN,Hindi,India,RAJASTHAN,08,KOTA,127,PIPALDA,0665,HATHOLI,101738,081270665101738,North,Rajasthani,325009,A
IN,Hindi,India,RAJASTHAN,08,PRATAPGARH,131,PRATAPGARH,0699,HATUNIYA,108601,081310699108601,North,Rajasthani,312605,A
IN,Hindi,India,RAJASTHAN,08,ALWAR,104,RAJGARH,0502,AMALA,073460,081040502073460,North,Rajasthani,301409,A
IN,Hindi,India,RAJASTHAN,08,JHALAWAR,129,JHALRAPATAN,0679,FOZAL PURA,104020,081290679104020,North,Rajasthani,326001,A
IN,Hindi,India,RAJASTHAN,08,PALI,118,PALI,0601,GULABPURA,090844,081180601090844,North,Rajasthani,306401,A
IN,Hindi,India,RAJASTHAN,08,NAGAUR,112,PARBATSAR,0564,GULAR,083539,081120564083539,North,Rajasthani,341501,A
IN,Hindi,India,RAJASTHAN,08,AJMER,119,KEKRI,0614,GULGAON,092454,081190614092454,North,Rajasthani,305407,A
IN,Hindi,India,RAJASTHAN,08,CHURU,102,RAJGARH,0482,INDASAR,070110,081020482070110,North,Rajasthani,331023,A
IN,Hindi,India,RAJASTHAN,08,BIKANER,101,SRIDUNGARGARH,0480,INDPALSAR GUSAINSAR,069918,081010480069918,North,Rajasthani,331803,A
IN,Hindi,India,RAJASTHAN,08,JODHPUR,113,PHALODI,0567,INDRA NAGAR,084429,081130567084429,North,Rajasthani,342309,A
IN,Hindi,India,RAJASTHAN,08,CHURU,102,TARANAGAR,0481,ABHAIPURA,070054,081020481070054,North,Rajasthani,331023,A
IN,Hindi,India,RAJASTHAN,08,DAUSA,109,SIKRAI,0535,ITKA,078330,081090535078330,North,Rajasthani,303326,A
IN,Hindi,India,RAJASTHAN,08,BARMER,115,RAMSAR,0583,JADAM KA PAR,088617,081150583088617,North,Rajasthani,344502,A
IN,Hindi,India,RAJASTHAN,08,DUNGARPUR,124,SIMALWARA,0649,JAFRA,098262,081240649098262,North,Rajasthani,314403,A
IN,Hindi,India,RAJASTHAN,08,DAUSA,109,LALSOT,0537,LAKHANPUR,078867,081090537078867,North,Rajasthani,303503,A
IN,Hindi,India,RAJASTHAN,08,BARMER,115,GUDHA MALANI,0581,LAKHARI NADI,087977,081150581087977,North,Rajasthani,344704,A
IN,Hindi,India,RAJASTHAN,08,HANUMANGARH,100,NOHAR,0471,LAKHASAR,068757,081000471068757,North,Rajasthani,335523,A
IN,Hindi,India,RAJASTHAN,08,JAIPUR,110,SHAHPURA,0540,LAKHNI,079323,081100540079323,North,Rajasthani,303103,A
IN,Hindi,India,RAJASTHAN,08,KARAULI,107,KARAULI,0523,LAKHNIPUR,076691,081070523076691,North,Rajasthani,322242,A
IN,Hindi,India,RAJASTHAN,08,BARMER,115,CHOHTAN,0584,LAKRASAR,089015,081150584089015,North,Rajasthani,344706,A
IN,Hindi,India,RAJASTHAN,08,JHUJHUNU,103,JHUNJHUNUN,0487,GOVINDPURA,070890,081030487070890,North,Rajasthani,331025,A
IN,Hindi,India,RAJASTHAN,08,RAJSAMAND,123,AMET,0641,GOWAL,096677,081230641096677,North,Rajasthani,313332,A
IN,Hindi,India,RAJASTHAN,08,JALOR,116,RANIWARA,0591,AMARAPURA,089862,081160591089862,North,Rajasthani,343048,A
IN,Hindi,India,RAJASTHAN,08,JAIPUR,110,BASSI,0549,GUDHA PHALYAWAS,080737,081100549080737,North,Rajasthani,303012,A
IN,Hindi,India,RAJASTHAN,08,BHILWARA,122,HURDA,0628,GARWAR,094770,081220628094770,North,Rajasthani,311204,A
IN,Hindi,India,RAJASTHAN,08,BHILWARA,122,SAHARA,0633,GATHEELA,095512,081220633095512,North,Rajasthani,311802,A
IN,Hindi,India,RAJASTHAN,08,JHUJHUNU,103,CHIRAWA,0488,GOWLA,071293,081030488071293,North,Rajasthani,333028,A
IN,Hindi,India,RAJASTHAN,08,BARAN,128,ANTAH,0671,AASANNAKTI,102704,081280671102704,North,Rajasthani,325202,A
IN,Hindi,India,RAJASTHAN,08,AJMER,119,BHINAY,0612,GHANA,092235,081190612092235,North,Rajasthani,305622,A
IN,Hindi,India,RAJASTHAN,08,CHURU,102,RAJGARH,0482,GHANAU,070102,081020482070102,North,Rajasthani,331023,A
IN,Hindi,India,RAJASTHAN,08,PALI,118,SOJAT,0599,GUDA CHATURA,090707,081180599090707,North,Rajasthani,306103,A
IN,Hindi,India,RAJASTHAN,08,CHITTORGARH,126,NIMBAHERA,0663,GUDA KHERA,101463,081260663101463,North,Rajasthani,312601,A
IN,Hindi,India,RAJASTHAN,08,BHILWARA,122,MANDALGARH,0637,GUDHA,096128,081220637096128,North,Rajasthani,311606,A
IN,Hindi,India,RAJASTHAN,08,BARMER,115,BARMER,0582,GUDISAR,088232,081150582088232,North,Rajasthani,344011,A
IN,Hindi,India,RAJASTHAN,08,TONK,120,PEEPLU,0616,ABBAS NAGAR CHAK NO.3,092697,081200616092697,North,Rajasthani,304801,A
IN,Hindi,India,RAJASTHAN,08,BHILWARA,122,BANERA,0630,LAKSHMIPURA,095104,081220630095104,North,Rajasthani,311011,A
IN,Hindi,India,RAJASTHAN,08,CHURU,102,RATANGARH,0485,KANGAR,070584,081020485070584,North,Rajasthani,331504,A
IN,Hindi,India,RAJASTHAN,08,PALI,118,DESURI,0603,ALSIPURA,091200,081180603091200,North,Rajasthani,306702,A
IN,Hindi,India,RAJASTHAN,08,ALWAR,104,BEHROR,0493,KANKAR,071810,081040493071810,North,Rajasthani,301705,A
IN,Hindi,India,RAJASTHAN,08,GANGANAGAR,099,SURATGARH,0465,GUSAINSAR,067109,080990465067109,North,Rajasthani,335805,A
IN,Hindi,India,RAJASTHAN,08,JHUJHUNU,103,NAWALGARH,0491,GUSAIYON KI DHANI,071631,081030491071631,North,Rajasthani,333305,A
IN,Hindi,India,RAJASTHAN,08,ALWAR,104,THANAGAZI,0501,GUWARA BHAGWAN,073203,081040501073203,North,Rajasthani,301027,A
IN,Hindi,India,RAJASTHAN,08,ALWAR,104,MANDAWAR,0494,HADA HERI,072015,081040494072015,North,Rajasthani,301407,A
IN,Hindi,India,RAJASTHAN,08,KARAULI,107,KARAULI,0523,HAKIMPURA,076674,081070523076674,North,Rajasthani,322241,A
IN,Hindi,India,RAJASTHAN,08,NAGAUR,112,JAYAL,0559,CHHAWATA KALAN,082762,081120559082762,North,Rajasthani,341027,A
IN,Hindi,India,RAJASTHAN,08,JAIPUR,110,VIRATNAGAR,0539,CHHEETOLI,079171,081100539079171,North,Rajasthani,303102,A
IN,Hindi,India,RAJASTHAN,08,BARAN,128,SHAHBAD,0675,CHHIPOL,103183,081280675103183,North,Rajasthani,325217,A
IN,Hindi,India,RAJASTHAN,08,RAJSAMAND,123,NATHDWARA,0645,CHHOTA BHANUJA,097259,081230645097259,North,Rajasthani,313321,A
IN,Hindi,India,RAJASTHAN,08,JHUJHUNU,103,CHIRAWA,0488,BAS KALANA,071265,081030488071265,North,Rajasthani,333026,A
IN,Hindi,India,RAJASTHAN,08,BIKANER,101,LUNKARANSAR,0475,BAS KARNISAR,069335,081010475069335,North,Rajasthani,334603,A
IN,Hindi,India,RAJASTHAN,08,ALWAR,104,BEHROR,0493,BASAI,071863,081040493071863,North,Rajasthani,301701,A
IN,Hindi,India,RAJASTHAN,08,ALWAR,104,TIJARA,0496,BASAI,072278,081040496072278,North,Rajasthani,301707,A
IN,Hindi,India,RAJASTHAN,08,DHOLPUR,106,DHAULPUR,0518,BASAI NEEM,076058,081060518076058,North,Rajasthani,328001,A
IN,Hindi,India,RAJASTHAN,08,JAISALMER,114,JAISALMER,0574,BASANPEER,086113,081140574086113,North,Rajasthani,345001,A
IN,Hindi,India,RAJASTHAN,08,JAISALMER,114,JAISALMER,0574,ABHAINAGAR,086175,081140574086175,North,Rajasthani,345001,A
IN,Hindi,India,RAJASTHAN,08,JHALAWAR,129,JHALRAPATAN,0679,SEMLI KALAN,104217,081290679104217,North,Rajasthani,326023,A
IN,Hindi,India,RAJASTHAN,08,BHARATPUR,105,BHARATPUR,0511,SENTHRA,074733,081050511074733,North,Rajasthani,321025,A
IN,Hindi,India,RAJASTHAN,08,JHALAWAR,129,MANOHAR THANA,0681,BANJARI,104796,081290681104796,North,Rajasthani,326033,A
IN,Hindi,India,RAJASTHAN,08,AJMER,119,PEESANGAN,0608,SETHAN,091647,081190608091647,North,Rajasthani,305204,A
IN,Hindi,India,RAJASTHAN,08,SAWAI MADHOPUR,108,CHAUTH KA BARWARA,0530,BANJARI,077597,081080530077597,North,Rajasthani,322702,A
IN,Hindi,India,RAJASTHAN,08,SIKAR,111,SIKAR,0553,SEWAD BARI,081528,081110553081528,North,Rajasthani,332041,A
IN,Hindi,India,RAJASTHAN,08,JODHPUR,113,LUNI,0572,SEWALA,085599,081130572085599,North,Rajasthani,342014,A
IN,Hindi,India,RAJASTHAN,08,PALI,118,BALI,0605,SARKHEJRA,091272,081180605091272,North,Rajasthani,306115,A
IN,Hindi,India,RAJASTHAN,08,BARMER,115,BARMER,0582,SARLI,088417,081150582088417,North,Rajasthani,344703,A
IN,Hindi,India,RAJASTHAN,08,BARMER,115,GUDHA MALANI,0581,SARNON KA TALA,087850,081150581087850,North,Rajasthani,344033,A
IN,Hindi,India,RAJASTHAN,08,BHILWARA,122,JAHAZPUR,0636,SARSIYA,095950,081220636095950,North,Rajasthani,311201,A
IN,Hindi,India,RAJASTHAN,08,AJMER,119,SARWAR,0613,SARSOONDA,092348,081190613092348,North,Rajasthani,305412,A
IN,Hindi,India,RAJASTHAN,08,RAJSAMAND,123,NATHDWARA,0645,SARSUNIYA,097367,081230645097367,North,Rajasthani,313301,A
IN,Hindi,India,RAJASTHAN,08,UDAIPUR,130,SARADA,0693,SASEI,107431,081300693107431,North,Rajasthani,313902,A
IN,Hindi,India,RAJASTHAN,08,BHARATPUR,105,BHARATPUR,0511,SEWAR KHURD,074694,081050511074694,North,Rajasthani,321303,A
IN,Hindi,India,RAJASTHAN,08,JAISALMER,114,POKARAN,0575,SEWDA,086227,081140575086227,North,Rajasthani,345028,A
IN,Hindi,India,RAJASTHAN,08,ALWAR,104,KOTKASIM,0495,SHAHJADPUR,072198,081040495072198,North,Rajasthani,301702,A
IN,Hindi,India,RAJASTHAN,08,JALOR,116,SANCHORE,0590,SHAKTI NAGAR,089590,081160590089590,North,Rajasthani,343040,A
IN,Hindi,India,RAJASTHAN,08,KOTA,127,SANGOD,0669,SANKHERA,102495,081270669102495,North,Rajasthani,325207,A
IN,Hindi,India,RAJASTHAN,08,JAISALMER,114,POKARAN,0575,SANKRA,086325,081140575086325,North,Rajasthani,345026,A
IN,Hindi,India,RAJASTHAN,08,JODHPUR,113,LUNI,0572,SANT DEVARAM NAGAR,085644,081130572085644,North,Rajasthani,342801,A
IN,Hindi,India,RAJASTHAN,08,JODHPUR,113,SHERGARH,0571,SANTOSH NATHPURA,085138,081130571085138,North,Rajasthani,342021,A
IN,Hindi,India,RAJASTHAN,08,CHURU,102,RATANGARH,0485,SANWATIYA,070654,081020485070654,North,Rajasthani,331505,A
IN,Hindi,India,RAJASTHAN,08,PALI,118,PALI,0601,SAPOONI,090862,081180601090862,North,Rajasthani,306501,A
IN,Hindi,India,RAJASTHAN,08,JAIPUR,110,AMBER,0547,SAR,080350,081100547080350,North,Rajasthani,303805,A
IN,Hindi,India,RAJASTHAN,08,BHARATPUR,105,PAHARI,0505,BARH,073967,081050505073967,North,Rajasthani,321022,A
IN,Hindi,India,RAJASTHAN,08,BHILWARA,122,MANDAL,0631,SARAI,095272,081220631095272,North,Rajasthani,311403,A
IN,Hindi,India,RAJASTHAN,08,PRATAPGARH,131,PEEPALKHOONT,0697,SAT SAJYA,108242,081310697108242,North,Rajasthani,312624,A
IN,Hindi,India,RAJASTHAN,08,CHITTORGARH,126,DUNGLA,0661,SATALIYAWAS,101066,081260661101066,North,Rajasthani,312402,A
IN,Hindi,India,RAJASTHAN,08,UDAIPUR,130,LASADIYA,0691,SATI KI CHORI,107082,081300691107082,North,Rajasthani,313027,A
IN,Hindi,India,RAJASTHAN,08,RAJSAMAND,123,NATHDWARA,0645,SATLEWA,097246,081230645097246,North,Rajasthani,313301,A
IN,Hindi,India,RAJASTHAN,08,DUNGARPUR,124,DUNGARPUR,0646,SATORA,097577,081240646097577,North,Rajasthani,314029,A
IN,Hindi,India,RAJASTHAN,08,BHILWARA,122,ASIND,0627,SAWAIGARH,094588,081220627094588,North,Rajasthani,311204,A
IN,Hindi,India,RAJASTHAN,08,BHILWARA,122,ASIND,0627,SAWAIPURA,094575,081220627094575,North,Rajasthani,311302,A
IN,Hindi,India,RAJASTHAN,08,JODHPUR,113,PHALODI,0567,SAWAL NAGAR,084237,081130567084237,North,Rajasthani,342302,A
IN,Hindi,India,RAJASTHAN,08,TONK,120,NIWAI,0617,BARHBHANTRIYA,092876,081200617092876,North,Rajasthani,304022,A
IN,Hindi,India,RAJASTHAN,08,UDAIPUR,130,GIRWA,0689,SAWEENA KHERA (RURAL),106488,081300689106488,North,Rajasthani,313001,A
IN,Hindi,India,RAJASTHAN,08,JODHPUR,113,SHERGARH,0571,SAYAB NAGAR,085216,081130571085216,North,Rajasthani,342306,A
IN,Hindi,India,RAJASTHAN,08,KARAULI,107,KARAULI,0523,SEELOTI,076684,081070523076684,North,Rajasthani,322242,A
IN,Hindi,India,RAJASTHAN,08,PALI,118,MARWAR JUNCTION,0602,SEENCHIYAWAS,090964,081180602090964,North,Rajasthani,306103,A
IN,Hindi,India,RAJASTHAN,08,BIKANER,101,BIKANER,0473,SEENTHAL,069115,081010473069115,North,Rajasthani,334202,A
IN,Hindi,India,RAJASTHAN,08,TONK,120,NIWAI,0617,SEEPURA,092918,081200617092918,North,Rajasthani,304025,A
IN,Hindi,India,RAJASTHAN,08,TONK,120,PEEPLU,0616,SEESOLA,092714,081200616092714,North,Rajasthani,304801,A
IN,Hindi,India,RAJASTHAN,08,CHITTORGARH,126,KAPASAN,0660,SEJGARIYA,100874,081260660100874,North,Rajasthani,312204,A
IN,Hindi,India,RAJASTHAN,08,SAWAI MADHOPUR,108,SAWAI MADHOPUR,0531,SELOO,077630,081080531077630,North,Rajasthani,322034,A
IN,Hindi,India,RAJASTHAN,08,TONK,120,MALPURA,0615,SELSAGAR,092503,081200615092503,North,Rajasthani,304502,A
IN,Hindi,India,RAJASTHAN,08,BANSWARA,125,KUSHALGARH,0654,SEMAL KHERA,099572,081250654099572,North,Rajasthani,327602,A
IN,Hindi,India,RAJASTHAN,08,PRATAPGARH,131,PRATAPGARH,0699,SEMALON KA KHERA,108443,081310699108443,North,Rajasthani,312623,A
IN,Hindi,India,RAJASTHAN,08,KARAULI,107,KARAULI,0523,SEMARDA,076794,081070523076794,North,Rajasthani,322243,A
IN,Hindi,India,RAJASTHAN,08,JHALAWAR,129,GANGDHAR,0684,SEMLI CHHAROT,105216,081290684105216,North,Rajasthani,326516,A
IN,Hindi,India,RAJASTHAN,08,UDAIPUR,130,RISHABHDEO,0694,SAIYAT BHAGAL,107577,081300694107577,North,Rajasthani,313026,A
IN,Hindi,India,RAJASTHAN,08,BARMER,115,GUDHA MALANI,0581,SAIYON KA GOLIYA,087978,081150581087978,North,Rajasthani,344704,A
IN,Hindi,India,RAJASTHAN,08,CHURU,102,SARDARSHAHAR,0483,SAJANSAR,070419,081020483070419,North,Rajasthani,331403,A
IN,Hindi,India,RAJASTHAN,08,PALI,118,ROHAT,0600,SAJI,090742,081180600090742,North,Rajasthani,306421,A
IN,Hindi,India,RAJASTHAN,08,BARMER,115,PACHPADRA,0579,SAJIYALI ROOPJI,087289,081150579087289,North,Rajasthani,344032,A
IN,Hindi,India,RAJASTHAN,08,DHOLPUR,106,BARI,0516,BARPURA,075712,081060516075712,North,Rajasthani,328021,A
IN,Hindi,India,RAJASTHAN,08,PRATAPGARH,131,DHARIAWAD,0696,SAKHI KHERA,107950,081310696107950,North,Rajasthani,312625,A
IN,Hindi,India,RAJASTHAN,08,DAUSA,109,LALSOT,0537,BARH ACHALPURA,078996,081090537078996,North,Rajasthani,303503,A
IN,Hindi,India,RAJASTHAN,08,KARAULI,107,NADOTI,0521,BARH BAGOR,076429,081070521076429,North,Rajasthani,322204,A
IN,Hindi,India,RAJASTHAN,08,DAUSA,109,LALSOT,0537,BARH BARWA,078699,081090537078699,North,Rajasthani,303510,A
IN,Hindi,India,RAJASTHAN,08,SAWAI MADHOPUR,108,GANGAPUR,0526,BARH BICHLA,077148,081080526077148,North,Rajasthani,322201,A
IN,Hindi,India,RAJASTHAN,08,DAUSA,109,DAUSA,0536,BARH CHHANGALA,078469,081090536078469,North,Rajasthani,303507,A
IN,Hindi,India,RAJASTHAN,08,DAUSA,109,LALSOT,0537,BARH DABAR KALAN,078796,081090537078796,North,Rajasthani,303511,A
IN,Hindi,India,RAJASTHAN,08,BANSWARA,125,KUSHALGARH,0654,SARAN,099755,081250654099755,North,Rajasthani,327801,A
IN,Hindi,India,RAJASTHAN,08,CHITTORGARH,126,GANGRAR,0656,SARAN,100125,081260656100125,North,Rajasthani,312901,A
IN,Hindi,India,RAJASTHAN,08,JHALAWAR,129,PIRAWA,0683,SARANGA KHERA,105157,081290683105157,North,Rajasthani,326034,A
IN,Hindi,India,RAJASTHAN,08,DAUSA,109,DAUSA,0536,BARH DAUSA,078504,081090536078504,North,Rajasthani,303303,A
IN,Hindi,India,RAJASTHAN,08,NAGAUR,112,NAGAUR,0560,SARANPURA,082825,081120560082825,North,Rajasthani,341001,A
IN,Hindi,India,RAJASTHAN,08,DAUSA,109,LALSOT,0537,BARH JEETA,078803,081090537078803,North,Rajasthani,303510,A
IN,Hindi,India,RAJASTHAN,08,JAIPUR,110,CHAKSU,0550,BARH MAHAWATAN,080977,081100550080977,North,Rajasthani,303901,A
IN,Hindi,India,RAJASTHAN,08,JAIPUR,110,CHAKSU,0550,BARH MOONDAHERI,080966,081100550080966,North,Rajasthani,303908,A
IN,Hindi,India,RAJASTHAN,08,CHURU,102,SARDARSHAHAR,0483,SARDARSHAHAR (M),800466,081020483800466,North,Rajasthani,331403,A
IN,Hindi,India,RAJASTHAN,08,BHILWARA,122,MANDAL,0631,SARDARSINGH JI KA KHERA,095190,081220631095190,North,Rajasthani,311804,A
IN,Hindi,India,RAJASTHAN,08,UDAIPUR,130,GIRWA,0689,SARE,106406,081300689106406,North,Rajasthani,313202,A
IN,Hindi,India,RAJASTHAN,08,DAUSA,109,LALSOT,0537,BARH NONDPURA,078863,081090537078863,North,Rajasthani,303503,A
IN,Hindi,India,RAJASTHAN,08,DAUSA,109,LALSOT,0537,BARH TUSADRI,078767,081090537078767,North,Rajasthani,303505,A
IN,Hindi,India,RAJASTHAN,08,UDAIPUR,130,GIRWA,0689,SABALPURA,106425,081300689106425,North,Rajasthani,313011,A
IN,Hindi,India,RAJASTHAN,08,BHILWARA,122,ASIND,0627,SABDARA,094694,081220627094694,North,Rajasthani,311301,A
IN,Hindi,India,RAJASTHAN,08,BANSWARA,125,GHATOL,0650,BARODA,098541,081250650098541,North,Rajasthani,327023,A
IN,Hindi,India,RAJASTHAN,08,UDAIPUR,130,GIRWA,0689,SAKRODA,106454,081300689106454,North,Rajasthani,313024,A
IN,Hindi,India,RAJASTHAN,08,BIKANER,101,KOLAYAT,0476,BARSALPUR,069345,081010476069345,North,Rajasthani,334305,A
IN,Hindi,India,RAJASTHAN,08,JODHPUR,113,PHALODI,0567,SALASAR,084192,081130567084192,North,Rajasthani,342301,A
IN,Hindi,India,RAJASTHAN,08,BHILWARA,122,BEEJOLIYA,0638,SALAWATIYA,096317,081220638096317,North,Rajasthani,311602,A
IN,Hindi,India,RAJASTHAN,08,BHARATPUR,105,WEIR,0512,SALEMPUR KALAN,074952,081050512074952,North,Rajasthani,321409,A
IN,Hindi,India,RAJASTHAN,08,DUNGARPUR,124,SIMALWARA,0649,SALERA,098418,081240649098418,North,Rajasthani,314030,A
IN,Hindi,India,RAJASTHAN,08,UDAIPUR,130,VALLABHNAGAR,0690,SALERA,106801,081300690106801,North,Rajasthani,313603,A
IN,Hindi,India,RAJASTHAN,08,TONK,120,MALPURA,0615,SALI LAKHAPURA,092622,081200615092622,North,Rajasthani,304502,A
IN,Hindi,India,RAJASTHAN,08,ALWAR,104,LACHHMANGARH,0503,SALIMPUR,073649,081040503073649,North,Rajasthani,321633,A
IN,Hindi,India,RAJASTHAN,08,BHARATPUR,105,KUMHER,0510,SAMAN,074553,081050510074553,North,Rajasthani,321202,A
IN,Hindi,India,RAJASTHAN,08,BHARATPUR,105,BAYANA,0513,SAMANTGARH,075195,081050513075195,North,Rajasthani,321405,A
IN,Hindi,India,RAJASTHAN,08,PRATAPGARH,131,DHARIAWAD,0696,SAMAOTA,108014,081310696108014,North,Rajasthani,312626,A
IN,Hindi,India,RAJASTHAN,08,JAIPUR,110,CHOMU,0541,SAMARPURA,079458,081100541079458,North,Rajasthani,303806,A
IN,Hindi,India,RAJASTHAN,08,DAUSA,109,MAHWA,0534,SAMASPUR,078220,081090534078220,North,Rajasthani,322240,A
IN,Hindi,India,RAJASTHAN,08,BARMER,115,SIWANA,0580,SAMDARI,087549,081150580087549,North,Rajasthani,344021,A
IN,Hindi,India,RAJASTHAN,08,NAGAUR,112,MERTA,0562,SAMDOLAO KHURD,083239,081120562083239,North,Rajasthani,341518,A
IN,Hindi,India,RAJASTHAN,08,BHILWARA,122,BHILWARA,0634,SAMORI,095526,081220634095526,North,Rajasthani,311802,A
IN,Hindi,India,RAJASTHAN,08,JODHPUR,113,PHALODI,0567,SAMRATHALPURA,084298,081130567084298,North,Rajasthani,342312,A
IN,Hindi,India,RAJASTHAN,08,SAWAI MADHOPUR,108,MALARNA DOONGAR,0528,SAMRATHPURA,077360,081080528077360,North,Rajasthani,322028,A
IN,Hindi,India,RAJASTHAN,08,UDAIPUR,130,KOTRA,0687,SANDMARIYA,105982,081300687105982,North,Rajasthani,307025,A
IN,Hindi,India,RAJASTHAN,08,AJMER,119,KISHANGARH,0606,SANDOLIYA,091538,081190606091538,North,Rajasthani,305813,A
IN,Hindi,India,RAJASTHAN,08,AJMER,119,KISHANGARH,0606,BARGAON,091473,081190606091473,North,Rajasthani,305816,A
IN,Hindi,India,RAJASTHAN,08,JAISALMER,114,FATEHGARH,0576,SANGAR,086551,081140576086551,North,Rajasthani,345027,A
IN,Hindi,India,RAJASTHAN,08,BHILWARA,122,SAHARA,0633,SANGAS,095486,081220633095486,North,Rajasthani,311806,A
IN,Hindi,India,RAJASTHAN,08,CHURU,102,RATANGARH,0485,SANGASAR,070656,081020485070656,North,Rajasthani,331022,A
IN,Hindi,India,RAJASTHAN,08,BANSWARA,125,GARHI,0651,SANGELA,098862,081250651098862,North,Rajasthani,314032,A
IN,Hindi,India,RAJASTHAN,08,CHITTORGARH,126,DUNGLA,0661,SANGESARA,101071,081260661101071,North,Rajasthani,312024,A
IN,Hindi,India,RAJASTHAN,08,JALOR,116,RANIWARA,0591,BARGAON,089860,081160591089860,North,Rajasthani,343048,A
IN,Hindi,India,RAJASTHAN,08,BARAN,128,SHAHBAD,0675,SANGESHWAR,103316,081280675103316,North,Rajasthani,325217,A
IN,Hindi,India,RAJASTHAN,08,SAWAI MADHOPUR,108,GANGAPUR,0526,WAZEERPUR,077099,081080526077099,North,Rajasthani,322219,A
IN,Hindi,India,RAJASTHAN,08,JODHPUR,113,PHALODI,0567,RIDMALNAGAR KALAN,084115,081130567084115,North,Rajasthani,342301,A
IN,Hindi,India,RAJASTHAN,08,JHUJHUNU,103,JHUNJHUNUN,0487,RIJANI,070985,081030487070985,North,Rajasthani,333010,A
IN,Hindi,India,RAJASTHAN,08,SIKAR,111,LACHHMANGARH,0552,RINU,081332,081110552081332,North,Rajasthani,332311,A
IN,Hindi,India,RAJASTHAN,08,CHURU,102,CHURU,0484,RIRKHALA,070486,081020484070486,North,Rajasthani,331001,A
IN,Hindi,India,RAJASTHAN,08,UDAIPUR,130,RISHABHDEO,0694,RISHABHDEO (CT),107683,081300694107683,North,Rajasthani,313802,A
IN,Hindi,India,RAJASTHAN,08,ALWAR,104,KISHANGARH BAS,0497,BASAI BALAN,072514,081040497072514,North,Rajasthani,301023,A
IN,Hindi,India,RAJASTHAN,08,JAISALMER,114,JAISALMER,0574,SADIYA,086115,081140574086115,North,Rajasthani,345001,A
IN,Hindi,India,RAJASTHAN,08,SAWAI MADHOPUR,108,MALARNA DOONGAR,0528,BARODIYA,077384,081080528077384,North,Rajasthani,322024,A
IN,Hindi,India,RAJASTHAN,08,JODHPUR,113,PHALODI,0567,SADRI,084458,081130567084458,North,Rajasthani,342302,A
IN,Hindi,India,RAJASTHAN,08,JODHPUR,113,SHERGARH,0571,SADULNAGAR,085073,081130571085073,North,Rajasthani,342306,A
IN,Hindi,India,RAJASTHAN,08,PRATAPGARH,131,PRATAPGARH,0699,SAGA MAGRI,108430,081310699108430,North,Rajasthani,312616,A
IN,Hindi,India,RAJASTHAN,08,UDAIPUR,130,SARADA,0693,SAGATPUR,107549,081300693107549,North,Rajasthani,313903,A
IN,Hindi,India,RAJASTHAN,08,JODHPUR,113,SHERGARH,0571,SAGRAN,085054,081130571085054,North,Rajasthani,342314,A
IN,Hindi,India,RAJASTHAN,08,PRATAPGARH,131,PEEPALKHOONT,0697,SAGWARI,108118,081310697108118,North,Rajasthani,312624,A
IN,Hindi,India,RAJASTHAN,08,SAWAI MADHOPUR,108,GANGAPUR,0526,SAHAJPUR,077141,081080526077141,North,Rajasthani,322204,A
IN,Hindi,India,RAJASTHAN,08,RAJSAMAND,123,NATHDWARA,0645,BAROLIYON KA KHERA,097338,081230645097338,North,Rajasthani,313301,A
IN,Hindi,India,RAJASTHAN,08,RAJSAMAND,123,BHIM,0639,BARON KI REL,096440,081230639096440,North,Rajasthani,305921,A
IN,Hindi,India,RAJASTHAN,08,CHITTORGARH,126,CHITTAURGARH,0659,SAHNAWA,100794,081260659100794,North,Rajasthani,312025,A
IN,Hindi,India,RAJASTHAN,08,DHOLPUR,106,DHAULPUR,0518,SAHRAUN,076048,081060518076048,North,Rajasthani,328001,A
IN,Hindi,India,RAJASTHAN,08,BUNDI,121,BUNDI,0626,VINAYAKA,094489,081210626094489,North,Rajasthani,323021,A
IN,Hindi,India,RAJASTHAN,08,BARAN,128,SHAHBAD,0675,VIROLI,103344,081280675103344,North,Rajasthani,325217,A
IN,Hindi,India,RAJASTHAN,08,JODHPUR,113,SHERGARH,0571,VISHAN NAGAR,085035,081130571085035,North,Rajasthani,342021,A
IN,Hindi,India,RAJASTHAN,08,NAGAUR,112,LADNU,0557,VISHWANATHPURA,082376,081120557082376,North,Rajasthani,341306,A
IN,Hindi,India,RAJASTHAN,08,JHALAWAR,129,PACHPAHAR,0682,VISTUNIYA,104949,081290682104949,North,Rajasthani,326512,A
IN,Hindi,India,RAJASTHAN,08,BHILWARA,122,JAHAZPUR,0636,RATANGARH,096068,081220636096068,North,Rajasthani,311605,A
IN,Hindi,India,RAJASTHAN,08,ALWAR,104,BANSUR,0500,RATANPURA,072967,081040500072967,North,Rajasthani,301402,A
IN,Hindi,India,RAJASTHAN,08,JHALAWAR,129,MANOHAR THANA,0681,RATANPURA,104703,081290681104703,North,Rajasthani,326037,A
IN,Hindi,India,RAJASTHAN,08,JODHPUR,113,SHERGARH,0571,RATANPURA,085393,081130571085393,North,Rajasthani,342022,A
IN,Hindi,India,RAJASTHAN,08,AJMER,119,BEAWAR,0609,RATANPURA SARDARA,091747,081190609091747,North,Rajasthani,305901,A
IN,Hindi,India,RAJASTHAN,08,BARAN,128,ANTAH,0671,RATARIYA,102649,081280671102649,North,Rajasthani,325202,A
IN,Hindi,India,RAJASTHAN,08,BARMER,115,SHEO,0577,ROHIDALA RATHODAN,086678,081150577086678,North,Rajasthani,344501,A
IN,Hindi,India,RAJASTHAN,08,JODHPUR,113,PHALODI,0567,ROHINA,084267,081130567084267,North,Rajasthani,342312,A
IN,Hindi,India,RAJASTHAN,08,SIROHI,117,PINDWARA,0594,ROHIRA,090120,081170594090120,North,Rajasthani,307024,A
IN,Hindi,India,RAJASTHAN,08,BARMER,115,SHEO,0577,ROHIRI,086616,081150577086616,North,Rajasthani,344501,A
IN,Hindi,India,RAJASTHAN,08,KOTA,127,LADPURA,0667,ROJHALA,102139,081270667102139,North,Rajasthani,324010,A
IN,Hindi,India,RAJASTHAN,08,BHARATPUR,105,NADBAI,0509,BASAIYA KALAN,074501,081050509074501,North,Rajasthani,321303,A
IN,Hindi,India,RAJASTHAN,08,BARAN,128,SHAHBAD,0675,BASAL,103244,081280675103244,North,Rajasthani,325217,A
IN,Hindi,India,RAJASTHAN,08,JAISALMER,114,JAISALMER,0574,BASANPEER,086112,081140574086112,North,Rajasthani,345001,A
IN,Hindi,India,RAJASTHAN,08,BHARATPUR,105,NADBAI,0509,RONEEJA,074405,081050509074405,North,Rajasthani,321602,A
IN,Hindi,India,RAJASTHAN,08,BUNDI,121,HINDOLI,0622,RONEEJA,093696,081210622093696,North,Rajasthani,323026,A
IN,Hindi,India,RAJASTHAN,08,BANSWARA,125,GHATOL,0650,ROOJIYA,098501,081250650098501,North,Rajasthani,327023,A
IN,Hindi,India,RAJASTHAN,08,CHITTORGARH,126,CHITTAURGARH,0659,ROOP PURA,100786,081260659100786,North,Rajasthani,312201,A
IN,Hindi,India,RAJASTHAN,08,BANSWARA,125,BAGIDORA,0653,ROOPA KHERA,099463,081250653099463,North,Rajasthani,327601,A
IN,Hindi,India,RAJASTHAN,08,CHITTORGARH,126,BHADESAR,0662,ROOPA KHERI,101183,081260662101183,North,Rajasthani,312027,A
IN,Hindi,India,RAJASTHAN,08,BHILWARA,122,BHILWARA,0634,ROOPAHELI,095558,081220634095558,North,Rajasthani,311011,A
IN,Hindi,India,RAJASTHAN,08,CHURU,102,SUJANGARH,0486,ROOPELI,070732,081020486070732,North,Rajasthani,331503,A
IN,Hindi,India,RAJASTHAN,08,NAGAUR,112,JAYAL,0559,ROOPNAGAR,082788,081120559082788,North,Rajasthani,341301,A
IN,Hindi,India,RAJASTHAN,08,JHALAWAR,129,JHALRAPATAN,0679,ROOPPURA BALDIYA,104191,081290679104191,North,Rajasthani,326021,A
IN,Hindi,India,RAJASTHAN,08,RAJSAMAND,123,RAJSAMAND,0643,BARLIYA,097118,081230643097118,North,Rajasthani,313324,A
IN,Hindi,India,RAJASTHAN,08,KOTA,127,DIGOD,0666,RUGGHI,101993,081270666101993,North,Rajasthani,325208,A
IN,Hindi,India,RAJASTHAN,08,SIKAR,111,FATEHPUR,0551,RUGHNATHPURA (RURAL),081259,081110551081259,North,Rajasthani,332301,A
IN,Hindi,India,RAJASTHAN,08,BHARATPUR,105,BHARATPUR,0511,RUNDH BANSI KHURD,074662,081050511074662,North,Rajasthani,321303,A
IN,Hindi,India,RAJASTHAN,08,ALWAR,104,RAJGARH,0502,RUNDH BHANGARH,073332,081040502073332,North,Rajasthani,301408,A
IN,Hindi,India,RAJASTHAN,08,ALWAR,104,RAJGARH,0502,RUNDH HARIPURA,073225,081040502073225,North,Rajasthani,301408,A
IN,Hindi,India,RAJASTHAN,08,BHARATPUR,105,WEIR,0512,RUNDH NAIWARA,074871,081050512074871,North,Rajasthani,321407,A
IN,Hindi,India,RAJASTHAN,08,JODHPUR,113,SHERGARH,0571,BARNAU,085097,081130571085097,North,Rajasthani,342309,A
IN,Hindi,India,RAJASTHAN,08,AJMER,119,MASUDA,0610,UTTAMI,092002,081190610092002,North,Rajasthani,305631,A
IN,Hindi,India,RAJASTHAN,08,PRATAPGARH,131,DHARIAWAD,0696,VAJON KA DEEPPURA,108037,081310696108037,North,Rajasthani,312625,A
IN,Hindi,India,RAJASTHAN,08,PRATAPGARH,131,ARNOD,0700,VANPURA,108748,081310700108748,North,Rajasthani,312619,A
IN,Hindi,India,RAJASTHAN,08,BARMER,115,PACHPADRA,0579,RANIYASAR,087329,081150579087329,North,Rajasthani,344032,A
IN,Hindi,India,RAJASTHAN,08,PRATAPGARH,131,PRATAPGARH,0699,RANJAL,108457,081310699108457,North,Rajasthani,312623,A
IN,Hindi,India,RAJASTHAN,08,UDAIPUR,130,SALUMBAR,0692,WAGAWATWADA,107257,081300692107257,North,Rajasthani,313027,A
IN,Hindi,India,RAJASTHAN,08,UDAIPUR,130,GIRWA,0689,WALI,106606,081300689106606,North,Rajasthani,313703,A
IN,Hindi,India,RAJASTHAN,08,PALI,118,BALI,0605,BARWA,091306,081180605091306,North,Rajasthani,306706,A
IN,Hindi,India,RAJASTHAN,08,BIKANER,101,KOLAYAT,0476,RAWALOTAN KA TALA,069380,081010476069380,North,Rajasthani,334305,A
IN,Hindi,India,RAJASTHAN,08,BHILWARA,122,JAHAZPUR,0636,RAWAT KHERA,095944,081220636095944,North,Rajasthani,311201,A
IN,Hindi,India,RAJASTHAN,08,BHILWARA,122,ASIND,0627,RAYRA,094660,081220627094660,North,Rajasthani,311204,A
IN,Hindi,India,RAJASTHAN,08,JHUJHUNU,103,JHUNJHUNUN,0487,BARWA KI DHAN,070891,081030487070891,North,Rajasthani,331025,A
IN,Hindi,India,RAJASTHAN,08,UDAIPUR,130,MAVLI,0685,REDIYA KHERI,105533,081300685105533,North,Rajasthani,313203,A
IN,Hindi,India,RAJASTHAN,08,BHARATPUR,105,BAYANA,0513,REECHHAULI,075046,081050513075046,North,Rajasthani,321410,A
IN,Hindi,India,RAJASTHAN,08,HANUMANGARH,100,RAWATSAR,0470,REKH CHARNI DANIASAR,068544,081000470068544,North,Rajasthani,335524,A
IN,Hindi,India,RAJASTHAN,08,BANSWARA,125,GHATOL,0650,RENGNIYA,098442,081250650098442,North,Rajasthani,314027,A
IN,Hindi,India,RAJASTHAN,08,JAIPUR,110,MAUZAMABAD,0543,RETA,079831,081100543079831,North,Rajasthani,303008,A
IN,Hindi,India,RAJASTHAN,08,ALWAR,104,KATHUMAR,0504,RETI,073718,081040504073718,North,Rajasthani,321605,A
IN,Hindi,India,RAJASTHAN,08,AJMER,119,AJMER,0607,REWAT,091593,081190607091593,North,Rajasthani,305021,A
IN,Hindi,India,RAJASTHAN,08,CHURU,102,RAJGARH,0482,BAS BHABHREED,070226,081020482070226,North,Rajasthani,331305,A
IN,Hindi,India,RAJASTHAN,08,PRATAPGARH,131,PRATAPGARH,0699,RICHHAWARA,108596,081310699108596,North,Rajasthani,312605,A
IN,Hindi,India,RAJASTHAN,08,BHILWARA,122,MANDAL,0631,RICHHI KA BADIYA,095130,081220631095130,North,Rajasthani,311804,A
IN,Hindi,India,RAJASTHAN,08,SIROHI,117,PINDWARA,0594,WARA,090102,081170594090102,North,Rajasthani,307032,A
IN,Hindi,India,RAJASTHAN,08,CHURU,102,RAJGARH,0482,BAS KANJAN,070092,081020482070092,North,Rajasthani,331701,A
IN,Hindi,India,RAJASTHAN,08,CHURU,102,RAJGARH,0482,BAS KIRTAN,070251,081020482070251,North,Rajasthani,331301,A
IN,Hindi,India,RAJASTHAN,08,BHARATPUR,105,NAGAR,0507,UDAIPUR NIHAM,074161,081050507074161,North,Rajasthani,321024,A
IN,Hindi,India,RAJASTHAN,08,KOTA,127,PIPALDA,0665,UDAIPURA,101694,081270665101694,North,Rajasthani,325009,A
IN,Hindi,India,RAJASTHAN,08,RAJSAMAND,123,RAILMAGRA,0644,UDALPURA,097224,081230644097224,North,Rajasthani,313211,A
IN,Hindi,India,RAJASTHAN,08,JODHPUR,113,LUNI,0572,BANIYAWAS,085696,081130572085696,North,Rajasthani,342802,A
IN,Hindi,India,RAJASTHAN,08,KOTA,127,RAMGANJ MANDI,0668,UDPURA,102323,081270668102323,North,Rajasthani,326501,A
IN,Hindi,India,RAJASTHAN,08,UDAIPUR,130,VALLABHNAGAR,0690,UDPURA,106955,081300690106955,North,Rajasthani,313604,A
IN,Hindi,India,RAJASTHAN,08,ALWAR,104,KATHUMAR,0504,RANOTA,073732,081040504073732,North,Rajasthani,321605,A
IN,Hindi,India,RAJASTHAN,08,KARAULI,107,KARAULI,0523,BANSWARI,076725,081070523076725,North,Rajasthani,322242,A
IN,Hindi,India,RAJASTHAN,08,CHITTORGARH,126,KAPASAN,0660,RANWON KA KHERA,101054,081260660101054,North,Rajasthani,312204,A
IN,Hindi,India,RAJASTHAN,08,JHALAWAR,129,GANGDHAR,0684,RAPA KHERI,105227,081290684105227,North,Rajasthani,326515,A
IN,Hindi,India,RAJASTHAN,08,AJMER,119,NASIRABAD,0611,RASOOLPURA,092169,081190611092169,North,Rajasthani,305621,A
IN,Hindi,India,RAJASTHAN,08,TONK,120,UNIARA,0621,RASOOLPURA,093640,081200621093640,North,Rajasthani,304024,A
IN,Hindi,India,RAJASTHAN,08,JAIPUR,110,SANGANER,0545,RATALYA,080118,081100545080118,North,Rajasthani,302029,A
IN,Hindi,India,RAJASTHAN,08,JALOR,116,AHORE,0586,VARNI,089155,081160586089155,North,Rajasthani,307029,A
IN,Hindi,India,RAJASTHAN,08,PALI,118,DESURI,0603,VEERAMPURA MATAJI,091159,081180603091159,North,Rajasthani,306601,A
IN,Hindi,India,RAJASTHAN,08,DUNGARPUR,124,SIMALWARA,0649,VEERAWARA,098223,081240649098223,North,Rajasthani,314404,A
IN,Hindi,India,RAJASTHAN,08,DAUSA,109,MAHWA,0534,VEERPUR,078200,081090534078200,North,Rajasthani,321608,A
IN,Hindi,India,RAJASTHAN,08,BANSWARA,125,GHATOL,0650,VERIPURA,098514,081250650098514,North,Rajasthani,327023,A
IN,Hindi,India,RAJASTHAN,08,CHITTORGARH,126,RAWATBHATA,0658,VIJAIPUR,100607,081260658100607,North,Rajasthani,323307,A
IN,Hindi,India,RAJASTHAN,08,DUNGARPUR,124,SAGWARA,0648,VIJAYPURA,098157,081240648098157,North,Rajasthani,314030,A
IN,Hindi,India,RAJASTHAN,08,ALWAR,104,BEHROR,0493,VIJAYSINGHPURA,071842,081040493071842,North,Rajasthani,301705,A
IN,Hindi,India,RAJASTHAN,08,AJMER,119,KISHANGARH,0606,TILONIYA,091461,081190606091461,North,Rajasthani,305816,A
IN,Hindi,India,RAJASTHAN,08,BANSWARA,125,GARHI,0651,BANKAWARA,098733,081250651098733,North,Rajasthani,327022,A
IN,Hindi,India,RAJASTHAN,08,BARMER,115,BARMER,0582,RANIGAON KALAN,088329,081150582088329,North,Rajasthani,344012,A
IN,Hindi,India,RAJASTHAN,08,JAIPUR,110,SHAHPURA,0540,RANIPURA,079278,081100540079278,North,Rajasthani,303601,A
IN,Hindi,India,RAJASTHAN,08,BIKANER,101,POOGAL,0474,RANISAR,069155,081010474069155,North,Rajasthani,334808,A
IN,Hindi,India,RAJASTHAN,08,JODHPUR,113,PHALODI,0567,UMMED NAGAR,084148,081130567084148,North,Rajasthani,342311,A
IN,Hindi,India,RAJASTHAN,08,BARAN,128,ATRU,0673,UMMEDGANJ,102883,081280673102883,North,Rajasthani,325218,A
IN,Hindi,India,RAJASTHAN,08,BHILWARA,122,SAHARA,0633,UMMEDPURA (KHALSA),095498,081220633095498,North,Rajasthani,311806,A
IN,Hindi,India,RAJASTHAN,08,UDAIPUR,130,SALUMBAR,0692,UMRA,107308,081300692107308,North,Rajasthani,313803,A
IN,Hindi,India,RAJASTHAN,08,DHOLPUR,106,SEPAU,0517,UMRARA,075868,081060517075868,North,Rajasthani,328030,A
IN,Hindi,India,RAJASTHAN,08,CHITTORGARH,126,BEGUN,0657,BANORA,100243,081260657100243,North,Rajasthani,312023,A
IN,Hindi,India,RAJASTHAN,08,DHOLPUR,106,BARI,0516,UMRI,075655,081060516075655,North,Rajasthani,328021,A
IN,Hindi,India,RAJASTHAN,08,BANSWARA,125,BANSWARA,0652,UMRIPADA,099081,081250652099081,North,Rajasthani,327001,A
IN,Hindi,India,RAJASTHAN,08,BHILWARA,122,SAHARA,0633,UNCHKIYA,095515,081220633095515,North,Rajasthani,311802,A
IN,Hindi,India,RAJASTHAN,08,BHARATPUR,105,BHARATPUR,0511,UNDRA,074769,081050511074769,North,Rajasthani,321001,A
IN,Hindi,India,RAJASTHAN,08,TONK,120,UNIARA,0621,UNIARA (M),800581,081200621800581,North,Rajasthani,304024,A
IN,Hindi,India,RAJASTHAN,08,RAJSAMAND,123,NATHDWARA,0645,UTHADON KI BHAGAL,097288,081230645097288,North,Rajasthani,313301,A
IN,Hindi,India,RAJASTHAN,08,AJMER,119,PEESANGAN,0608,TITARDI,091687,081190608091687,North,Rajasthani,305202,A
IN,Hindi,India,RAJASTHAN,08,JAIPUR,110,BASSI,0549,TODABHATA,080762,081100549080762,North,Rajasthani,303301,A
IN,Hindi,India,RAJASTHAN,08,UDAIPUR,130,GIRWA,0689,TODI,106635,081300689106635,North,Rajasthani,313703,A
IN,Hindi,India,RAJASTHAN,08,ALWAR,104,RAMGARH,0498,TODLI,072518,081040498072518,North,Rajasthani,301026,A
IN,Hindi,India,RAJASTHAN,08,KARAULI,107,HINDAUN,0522,TODOOPURA,076587,081070522076587,North,Rajasthani,322234,A
IN,Hindi,India,RAJASTHAN,08,TONK,120,DEOLI,0620,TOKRAWAS BUNDI,093398,081200620093398,North,Rajasthani,304802,A
IN,Hindi,India,RAJASTHAN,08,SAWAI MADHOPUR,108,GANGAPUR,0526,TOKSI,077120,081080526077120,North,Rajasthani,322202,A
IN,Hindi,India,RAJASTHAN,08,JHALAWAR,129,KHANPUR,0678,BANI,103842,081290678103842,North,Rajasthani,326038,A
IN,Hindi,India,RAJASTHAN,08,BHILWARA,122,RAIPUR,0632,TOLAS,095366,081220632095366,North,Rajasthani,311801,A
IN,Hindi,India,RAJASTHAN,08,ALWAR,104,THANAGAZI,0501,TOLAWAS,073068,081040501073068,North,Rajasthani,301024,A
IN,Hindi,India,RAJASTHAN,08,TONK,120,TONK,0618,TONK (M CL),800578,081200618800578,North,Rajasthani,304001,A
IN,Hindi,India,RAJASTHAN,08,JHUJHUNU,103,NAWALGARH,0491,TONK DHAKA KI DHANI,071670,081030491071670,North,Rajasthani,333308,A
IN,Hindi,India,RAJASTHAN,08,SIKAR,111,DANTA RAMGARH,0554,TULSIRAMPURA,081831,081110554081831,North,Rajasthani,332402,A
IN,Hindi,India,RAJASTHAN,08,CHURU,102,RAJGARH,0482,TUNDA KHERI,070078,081020482070078,North,Rajasthani,331701,A
IN,Hindi,India,RAJASTHAN,08,JHUJHUNU,103,NAWALGARH,0491,TURKANI JOHADI,071660,081030491071660,North,Rajasthani,333042,A
IN,Hindi,India,RAJASTHAN,08,SAWAI MADHOPUR,108,KHANDAR,0532,BANIPURA,077826,081080532077826,North,Rajasthani,322025,A
IN,Hindi,India,RAJASTHAN,08,ALWAR,104,TIJARA,0496,UBARAKA,072270,081040496072270,North,Rajasthani,301707,A
IN,Hindi,India,RAJASTHAN,08,RAJSAMAND,123,RAILMAGRA,0644,RAMPURIYA,097148,081230644097148,North,Rajasthani,313327,A
IN,Hindi,India,RAJASTHAN,08,JAIPUR,110,BASSI,0549,RAMRATANPURA,080687,081100549080687,North,Rajasthani,303012,A
IN,Hindi,India,RAJASTHAN,08,NAGAUR,112,DEGANA,0563,RAMSARI,083377,081120563083377,North,Rajasthani,341503,A
IN,Hindi,India,RAJASTHAN,08,ALWAR,104,RAJGARH,0502,RAMSINGHPURA,073321,081040502073321,North,Rajasthani,301410,A
IN,Hindi,India,RAJASTHAN,08,JHUJHUNU,103,JHUNJHUNUN,0487,RAMSINGHPURA,070842,081030487070842,North,Rajasthani,331028,A
IN,Hindi,India,RAJASTHAN,08,NAGAUR,112,NAGAUR,0560,RAMSIYA,082903,081120560082903,North,Rajasthani,341001,A
IN,Hindi,India,RAJASTHAN,08,DAUSA,109,BASWA,0533,RANAPARA,078072,081090533078072,North,Rajasthani,303509,A
IN,Hindi,India,RAJASTHAN,08,NAGAUR,112,DEGANA,0563,RANAS,083389,081120563083389,North,Rajasthani,341514,A
IN,Hindi,India,RAJASTHAN,08,JAISALMER,114,JAISALMER,0574,RANASAR,085946,081140574085946,North,Rajasthani,345001,A
IN,Hindi,India,RAJASTHAN,08,JALOR,116,JALOR,0587,RANCHHOR NAGAR,089288,081160587089288,North,Rajasthani,343001,A
IN,Hindi,India,RAJASTHAN,08,JAIPUR,110,PHULERA (HQ.SAMBHAR),0542,TURKYAWAS,079470,081100542079470,North,Rajasthani,303602,A
IN,Hindi,India,RAJASTHAN,08,DAUSA,109,DAUSA,0536,BARKHERA,078513,081090536078513,North,Rajasthani,303303,A
IN,Hindi,India,RAJASTHAN,08,BARAN,128,ATRU,0673,BARLAN,102887,081280673102887,North,Rajasthani,325218,A
IN,Hindi,India,RAJASTHAN,08,AJMER,119,BHINAY,0612,BARLI,092263,081190612092263,North,Rajasthani,305624,A
IN,Hindi,India,RAJASTHAN,08,DAUSA,109,SIKRAI,0535,BARLI,078366,081090535078366,North,Rajasthani,303326,A
IN,Hindi,India,RAJASTHAN,08,SAWAI MADHOPUR,108,BAMANWAS,0527,BARNALA,077336,081080527077336,North,Rajasthani,322214,A
IN,Hindi,India,RAJASTHAN,08,NAGAUR,112,JAYAL,0559,BARNEL,082742,081120559082742,North,Rajasthani,341023,A
IN,Hindi,India,RAJASTHAN,08,KOTA,127,PIPALDA,0665,BAROLI,101843,081270665101843,North,Rajasthani,325214,A
IN,Hindi,India,RAJASTHAN,08,BANSWARA,125,GHATOL,0650,BARON KA PHALA,098435,081250650098435,North,Rajasthani,327023,A
IN,Hindi,India,RAJASTHAN,08,KARAULI,107,KARAULI,0523,MAKANPUR,076638,081070523076638,North,Rajasthani,322255,A
IN,Hindi,India,RAJASTHAN,08,BANSWARA,125,BANSWARA,0652,MAKANPURA,099033,081250652099033,North,Rajasthani,327001,A
IN,Hindi,India,RAJASTHAN,08,PALI,118,RAIPUR,0598,MAKARWALI,090510,081180598090510,North,Rajasthani,306105,A
IN,Hindi,India,RAJASTHAN,08,KARAULI,107,TODABHIM,0520,MAKBARA,076218,081070520076218,North,Rajasthani,321611,A
IN,Hindi,India,RAJASTHAN,08,DUNGARPUR,124,DUNGARPUR,0646,BANDRA,097744,081240646097744,North,Rajasthani,314037,A
IN,Hindi,India,RAJASTHAN,08,BANSWARA,125,GARHI,0651,UNTI,098737,081250651098737,North,Rajasthani,327022,A
IN,Hindi,India,RAJASTHAN,08,SIROHI,117,ABU ROAD,0595,UPALA TANKIYA,090185,081170595090185,North,Rajasthani,307032,A
IN,Hindi,India,RAJASTHAN,08,UDAIPUR,130,JHADOL,0688,UPLA AMDA,106307,081300688106307,North,Rajasthani,313701,A
IN,Hindi,India,RAJASTHAN,08,RAJSAMAND,123,KUMBHALGARH,0642,UPLAWAS,096982,081230642096982,North,Rajasthani,313325,A
IN,Hindi,India,RAJASTHAN,08,DAUSA,109,BASWA,0533,UPRERA,077928,081090533077928,North,Rajasthani,303327,A
IN,Hindi,India,RAJASTHAN,08,JHALAWAR,129,PACHPAHAR,0682,RAJPURA,104969,081290682104969,North,Rajasthani,326501,A
IN,Hindi,India,RAJASTHAN,08,JHALAWAR,129,JHALRAPATAN,0679,RAJPURA KHURD,103991,081290679103991,North,Rajasthani,326023,A
IN,Hindi,India,RAJASTHAN,08,JHUJHUNU,103,CHIRAWA,0488,RAJVEERPURA,071241,081030488071241,North,Rajasthani,333033,A
IN,Hindi,India,RAJASTHAN,08,JODHPUR,113,JODHPUR,0570,RAJWA,084946,081130570084946,North,Rajasthani,342001,A
IN,Hindi,India,RAJASTHAN,08,TONK,120,UNIARA,0621,USMANPURA,093631,081200621093631,North,Rajasthani,304024,A
IN,Hindi,India,RAJASTHAN,08,BHARATPUR,105,KUMHER,0510,USRARA,074619,081050510074619,North,Rajasthani,321201,A
IN,Hindi,India,RAJASTHAN,08,BHILWARA,122,BEEJOLIYA,0638,UTTAMNAGAR,096278,081220638096278,North,Rajasthani,311602,A
IN,Hindi,India,RAJASTHAN,08,JODHPUR,113,SHERGARH,0571,UTTAMSINGH NAGAR,085386,081130571085386,North,Rajasthani,342028,A
IN,Hindi,India,RAJASTHAN,08,JODHPUR,113,LUNI,0572,UTTESAR,085606,081130572085606,North,Rajasthani,342801,A
IN,Hindi,India,RAJASTHAN,08,PALI,118,PALI,0601,UTVAN,090816,081180601090816,North,Rajasthani,306401,A
IN,Hindi,India,RAJASTHAN,08,KARAULI,107,HINDAUN,0522,VAJNA KALAN,076501,081070522076501,North,Rajasthani,322230,A
IN,Hindi,India,RAJASTHAN,08,DUNGARPUR,124,SAGWARA,0648,VANIYAP,098110,081240648098110,North,Rajasthani,314026,A
IN,Hindi,India,RAJASTHAN,08,DUNGARPUR,124,SAGWARA,0648,VANORI,098035,081240648098035,North,Rajasthani,314027,A
IN,Hindi,India,RAJASTHAN,08,UDAIPUR,130,VALLABHNAGAR,0690,VARNODA,106908,081300690106908,North,Rajasthani,313603,A
IN,Hindi,India,RAJASTHAN,08,DUNGARPUR,124,SAGWARA,0648,VARSINGHPUR,098014,081240648098014,North,Rajasthani,314025,A
IN,Hindi,India,RAJASTHAN,08,KARAULI,107,SAPOTRA,0525,VEERAM KI GUWARI,077016,081070525077016,North,Rajasthani,322243,A
IN,Hindi,India,RAJASTHAN,08,BARMER,115,GUDHA MALANI,0581,VEERMANIYON KI DHANI,088165,081150581088165,North,Rajasthani,344031,A
IN,Hindi,India,RAJASTHAN,08,BARMER,115,CHOHTAN,0584,VENRDI,089041,081150584089041,North,Rajasthani,344706,A
IN,Hindi,India,RAJASTHAN,08,RAJSAMAND,123,DEOGARH,0640,VERAWAS,096615,081230640096615,North,Rajasthani,313331,A
IN,Hindi,India,RAJASTHAN,08,KOTA,127,LADPURA,0667,VIJAIPURA,102065,081270667102065,North,Rajasthani,325001,A
IN,Hindi,India,RAJASTHAN,08,PRATAPGARH,131,DHARIAWAD,0696,VIJANIYA,107983,081310696107983,North,Rajasthani,312626,A
IN,Hindi,India,RAJASTHAN,08,PALI,118,JAITARAN,0597,VIJAY GARH,090453,081180597090453,North,Rajasthani,306102,A
IN,Hindi,India,RAJASTHAN,08,BUNDI,121,KESHORAIPATAN,0625,VIJAYNAGAR,094226,081210625094226,North,Rajasthani,323602,A
IN,Hindi,India,RAJASTHAN,08,SAWAI MADHOPUR,108,CHAUTH KA BARWARA,0530,BANDH GOPALPURA,077539,081080530077539,North,Rajasthani,322703,A
IN,Hindi,India,RAJASTHAN,08,SAWAI MADHOPUR,108,GANGAPUR,0526,VINEGA,077113,081080526077113,North,Rajasthani,322219,A
IN,Hindi,India,RAJASTHAN,08,BHILWARA,122,JAHAZPUR,0636,RAJWAS,095978,081220636095978,North,Rajasthani,311605,A
IN,Hindi,India,RAJASTHAN,08,TONK,120,TODARAISINGH,0619,RAM NIWASPURA,093191,081200619093191,North,Rajasthani,304505,A
IN,Hindi,India,RAJASTHAN,08,JODHPUR,113,PHALODI,0567,RAM SAGAR,084423,081130567084423,North,Rajasthani,342309,A
IN,Hindi,India,RAJASTHAN,08,BHILWARA,122,RAIPUR,0632,RAMA,095342,081220632095342,North,Rajasthani,311803,A
IN,Hindi,India,RAJASTHAN,08,BIKANER,101,POOGAL,0474,RAMAI,069183,081010474069183,North,Rajasthani,334808,A
IN,Hindi,India,RAJASTHAN,08,UDAIPUR,130,GIRWA,0689,UDAIPUR (M CL),800623,081300689800623,North,Rajasthani,313001,A
IN,Hindi,India,RAJASTHAN,08,BANSWARA,125,GHATOL,0650,UDAJI KA GARA,098578,081250650098578,North,Rajasthani,314027,A
IN,Hindi,India,RAJASTHAN,08,BHILWARA,122,ASIND,0627,UDALPURA,094755,081220627094755,North,Rajasthani,311026,A
IN,Hindi,India,RAJASTHAN,08,SIKAR,111,FATEHPUR,0551,UDANSARI,081249,081110551081249,North,Rajasthani,332301,A
IN,Hindi,India,RAJASTHAN,08,JHUJHUNU,103,JHUNJHUNUN,0487,BAS BHINWSARIYA,070917,081030487070917,North,Rajasthani,333010,A
IN,Hindi,India,RAJASTHAN,08,JODHPUR,113,BHOPALGARH,0569,UDETH NAGAR,084852,081130569084852,North,Rajasthani,342606,A
IN,Hindi,India,RAJASTHAN,08,UDAIPUR,130,GIRWA,0689,UDIYA KHERA,106573,081300689106573,North,Rajasthani,313901,A
IN,Hindi,India,RAJASTHAN,08,BARAN,128,CHHABRA,0676,UDPURIYA,103480,081280676103480,North,Rajasthani,325220,A
IN,Hindi,India,RAJASTHAN,08,JHUJHUNU,103,CHIRAWA,0488,BAS GOKAL,071217,081030488071217,North,Rajasthani,333030,A
IN,Hindi,India,RAJASTHAN,08,CHITTORGARH,126,RAWATBHATA,0658,UDPURIYA,100534,081260658100534,North,Rajasthani,323307,A
IN,Hindi,India,RAJASTHAN,08,UDAIPUR,130,SARADA,0693,UDPURIYA,107452,081300693107452,North,Rajasthani,313905,A
IN,Hindi,India,RAJASTHAN,08,CHURU,102,SARDARSHAHAR,0483,UDSAR LODERA,070423,081020483070423,North,Rajasthani,331403,A
IN,Hindi,India,RAJASTHAN,08,BARMER,115,BAYTOO,0578,UGRENIYON KI DHANI,086932,081150578086932,North,Rajasthani,344037,A
IN,Hindi,India,RAJASTHAN,08,CHURU,102,TARANAGAR,0481,BAS SARAYAN,069965,081020481069965,North,Rajasthani,331304,A
IN,Hindi,India,RAJASTHAN,08,UDAIPUR,130,GIRWA,0689,UKAR,106618,081300689106618,North,Rajasthani,313703,A
IN,Hindi,India,RAJASTHAN,08,CHITTORGARH,126,KAPASAN,0660,VIROLI,101051,081260660101051,North,Rajasthani,312024,A
IN,Hindi,India,RAJASTHAN,08,BARMER,115,BARMER,0582,VISHANPURA,088360,081150582088360,North,Rajasthani,344001,A
IN,Hindi,India,RAJASTHAN,08,BARMER,115,GUDHA MALANI,0581,VISHNOIYON KI DHANI,087698,081150581087698,North,Rajasthani,344704,A
IN,Hindi,India,RAJASTHAN,08,BANSWARA,125,BANSWARA,0652,WANALA,098901,081250652098901,North,Rajasthani,327001,A
IN,Hindi,India,RAJASTHAN,08,ALWAR,104,RAMGARH,0498,WARISPUR,072520,081040498072520,North,Rajasthani,301026,A
IN,Hindi,India,RAJASTHAN,08,CHITTORGARH,126,DUNGLA,0661,WAZEERPURA,101117,081260661101117,North,Rajasthani,312402,A
IN,Hindi,India,RAJASTHAN,08,BHARATPUR,105,WEIR,0512,WEIR (M),800500,081050512800500,North,Rajasthani,321408,A
IN,Hindi,India,RAJASTHAN,08,JAIPUR,110,AMBER,0547,YADAVKHERA,080302,081100547080302,North,Rajasthani,303701,A
IN,Hindi,India,RAJASTHAN,08,NAGAUR,112,PARBATSAR,0564,BAGTAWAR PURA,083605,081120564083605,North,Rajasthani,341503,A
IN,Hindi,India,RAJASTHAN,08,JAISALMER,114,JAISALMER,0574,TIBANSAR,085878,081140574085878,North,Rajasthani,345001,A
IN,Hindi,India,RAJASTHAN,08,PRATAPGARH,131,DHARIAWAD,0696,TIHAWALON KA PHALA,108044,081310696108044,North,Rajasthani,312625,A
IN,Hindi,India,RAJASTHAN,08,UDAIPUR,130,GOGUNDA,0686,BAGUNI,105646,081300686105646,North,Rajasthani,313704,A
IN,Hindi,India,RAJASTHAN,08,SIKAR,111,DANTA RAMGARH,0554,TILOKPURA,081757,081110554081757,North,Rajasthani,332403,A
IN,Hindi,India,RAJASTHAN,08,NAGAUR,112,LADNU,0557,TILOTI,082405,081120557082405,North,Rajasthani,341303,A
IN,Hindi,India,RAJASTHAN,08,BARMER,115,BARMER,0582,TIRSINGRA,088237,081150582088237,North,Rajasthani,344001,A
IN,Hindi,India,RAJASTHAN,08,BHILWARA,122,JAHAZPUR,0636,BAGWASA,095979,081220636095979,North,Rajasthani,311203,A
IN,Hindi,India,RAJASTHAN,08,TONK,120,DEOLI,0620,TODA KA GOTHRA,093384,081200620093384,North,Rajasthani,304802,A
IN,Hindi,India,RAJASTHAN,08,JHALAWAR,129,MANOHAR THANA,0681,TODRA,104795,081290681104795,North,Rajasthani,326037,A
IN,Hindi,India,RAJASTHAN,08,PALI,118,PALI,0601,TOGAWAS,090860,081180601090860,North,Rajasthani,306422,A
IN,Hindi,India,RAJASTHAN,08,JODHPUR,113,OSIAN,0568,UMMEDNAGAR,084719,081130568084719,North,Rajasthani,342305,A
IN,Hindi,India,RAJASTHAN,08,CHITTORGARH,126,DUNGLA,0661,UMMEDPURA,101133,081260661101133,North,Rajasthani,312402,A
IN,Hindi,India,RAJASTHAN,08,CHITTORGARH,126,RASHMI,0655,UNCHA,099953,081260655099953,North,Rajasthani,312206,A
IN,Hindi,India,RAJASTHAN,08,BHARATPUR,105,KAMAN,0506,UNCHERA,074010,081050506074010,North,Rajasthani,321023,A
IN,Hindi,India,RAJASTHAN,08,JHALAWAR,129,AKLERA,0680,UNI,104437,081290680104437,North,Rajasthani,326033,A
IN,Hindi,India,RAJASTHAN,08,UDAIPUR,130,VALLABHNAGAR,0690,UPLA SEMALIYA,106927,081300690106927,North,Rajasthani,313706,A
IN,Hindi,India,RAJASTHAN,08,BHARATPUR,105,NAGAR,0507,URKI NIRBHAI,074249,081050507074249,North,Rajasthani,321205,A
IN,Hindi,India,RAJASTHAN,08,DHOLPUR,106,RAJAKHERA,0519,MARENA,076116,081060519076116,North,Rajasthani,328029,A
IN,Hindi,India,RAJASTHAN,08,BUNDI,121,NAINWA,0623,KISHANGANJ,094026,081210623094026,North,Rajasthani,323802,A
IN,Hindi,India,RAJASTHAN,08,BHILWARA,122,JAHAZPUR,0636,KISHANGARH,096049,081220636096049,North,Rajasthani,311203,A
IN,Hindi,India,RAJASTHAN,08,CHITTORGARH,126,KAPASAN,0660,KISHANIYAKHERI,100939,081260660100939,North,Rajasthani,312202,A
IN,Hindi,India,RAJASTHAN,08,JAIPUR,110,CHOMU,0541,ASTI KHURD,079354,081100541079354,North,Rajasthani,303602,A
IN,Hindi,India,RAJASTHAN,08,JAISALMER,114,POKARAN,0575,TAWARIWALA,086199,081140575086199,North,Rajasthani,345028,A
IN,Hindi,India,RAJASTHAN,08,ALWAR,104,TIJARA,0496,TEEHLI,072372,081040496072372,North,Rajasthani,301411,A
IN,Hindi,India,RAJASTHAN,08,ALWAR,104,KISHANGARH BAS,0497,TEETARKA,072424,081040497072424,North,Rajasthani,301405,A
IN,Hindi,India,RAJASTHAN,08,TONK,120,NIWAI,0617,TEETOLI @ BARA GAON,092958,081200617092958,North,Rajasthani,304025,A
IN,Hindi,India,RAJASTHAN,08,RAJSAMAND,123,DEOGARH,0640,TEGI,096643,081230640096643,North,Rajasthani,313331,A
IN,Hindi,India,RAJASTHAN,08,CHITTORGARH,126,BHADESAR,0662,TEJPURA,101330,081260662101330,North,Rajasthani,312614,A
IN,Hindi,India,RAJASTHAN,08,JAISALMER,114,JAISALMER,0574,TEJSI,086135,081140574086135,North,Rajasthani,345034,A
IN,Hindi,India,RAJASTHAN,08,JHUJHUNU,103,CHIRAWA,0488,BANGOTHRI KALAN,071117,081030488071117,North,Rajasthani,333031,A
IN,Hindi,India,RAJASTHAN,08,BARMER,115,PACHPADRA,0579,TEMAWAS,087312,081150579087312,North,Rajasthani,344025,A
IN,Hindi,India,RAJASTHAN,08,JAIPUR,110,VIRATNAGAR,0539,TEORI,079212,081100539079212,North,Rajasthani,303003,A
IN,Hindi,India,RAJASTHAN,08,BARMER,115,PACHPADRA,0579,BAGNAWAS,087460,081150579087460,North,Rajasthani,344026,A
IN,Hindi,India,RAJASTHAN,08,DAUSA,109,BASWA,0533,THAILA KA BAS,077973,081090533077973,North,Rajasthani,303323,A
IN,Hindi,India,RAJASTHAN,08,DUNGARPUR,124,SAGWARA,0648,THAKARDA,098052,081240648098052,North,Rajasthani,314025,A
IN,Hindi,India,RAJASTHAN,08,NAGAUR,112,NAGAUR,0560,THALANJOO,082846,081120560082846,North,Rajasthani,341001,A
IN,Hindi,India,RAJASTHAN,08,SAWAI MADHOPUR,108,BONLI,0529,TOND,077487,081080529077487,North,Rajasthani,322030,A
IN,Hindi,India,RAJASTHAN,08,BUNDI,121,NAINWA,0623,TOPA,093902,081210623093902,North,Rajasthani,323801,A
IN,Hindi,India,RAJASTHAN,08,HANUMANGARH,100,NOHAR,0471,TOPARIYA BARANI,068596,081000471068596,North,Rajasthani,335523,A
IN,Hindi,India,RAJASTHAN,08,JAIPUR,110,CHAKSU,0550,TRILOKINATHPURA,081180,081100550081180,North,Rajasthani,303908,A
IN,Hindi,India,RAJASTHAN,08,JAIPUR,110,CHAKSU,0550,TRILOKPURA,081043,081100550081043,North,Rajasthani,303901,A
IN,Hindi,India,RAJASTHAN,08,RAJSAMAND,123,RAJSAMAND,0643,TUNKARA KHURD,097078,081230643097078,North,Rajasthani,313334,A
IN,Hindi,India,RAJASTHAN,08,NAGAUR,112,MAKRANA,0565,BARWALA,083695,081120565083695,North,Rajasthani,341505,A
IN,Hindi,India,RAJASTHAN,08,BUNDI,121,KESHORAIPATAN,0625,MAYAJA,094219,081210625094219,North,Rajasthani,323602,A
IN,Hindi,India,RAJASTHAN,08,BARMER,115,BAYTOO,0578,MAYLON KI DHANI,086943,081150578086943,North,Rajasthani,344035,A
IN,Hindi,India,RAJASTHAN,08,JAIPUR,110,CHOMU,0541,BALEKHAN,079428,081100541079428,North,Rajasthani,303712,A
IN,Hindi,India,RAJASTHAN,08,SIROHI,117,ABU ROAD,0595,MEERGARH,090173,081170595090173,North,Rajasthani,307024,A
IN,Hindi,India,RAJASTHAN,08,JALOR,116,BAGORA,0589,MEERPURA,089474,081160589089474,North,Rajasthani,343030,A
IN,Hindi,India,RAJASTHAN,08,BARMER,115,BARMER,0582,BALERA,088326,081150582088326,North,Rajasthani,344012,A
IN,Hindi,India,RAJASTHAN,08,JALOR,116,SANCHORE,0590,BALERA,089551,081160590089551,North,Rajasthani,343041,A
IN,Hindi,India,RAJASTHAN,08,NAGAUR,112,DIDWANA,0558,NAURANGPURA,082475,081120558082475,North,Rajasthani,341303,A
IN,Hindi,India,RAJASTHAN,08,BARMER,115,BARMER,0582,NAVJI KA PANA,088293,081150582088293,North,Rajasthani,344035,A
IN,Hindi,India,RAJASTHAN,08,DUNGARPUR,124,DUNGARPUR,0646,NAWA TAPRAN,097693,081240646097693,North,Rajasthani,314037,A
IN,Hindi,India,RAJASTHAN,08,BARAN,128,CHHABRA,0676,NAWAB GANJ,103519,081280676103519,North,Rajasthani,325220,A
IN,Hindi,India,RAJASTHAN,08,TONK,120,UNIARA,0621,NAWABGANJ,093666,081200621093666,North,Rajasthani,304023,A
IN,Hindi,India,RAJASTHAN,08,JHALAWAR,129,JHALRAPATAN,0679,BALI,104137,081290679104137,North,Rajasthani,326023,A
IN,Hindi,India,RAJASTHAN,08,PALI,118,RAIPUR,0598,BALI,090478,081180598090478,North,Rajasthani,306304,A
IN,Hindi,India,RAJASTHAN,08,BARMER,115,CHOHTAN,0584,PABUDANPURA,089003,081150584089003,North,Rajasthani,344706,A
IN,Hindi,India,RAJASTHAN,08,BANSWARA,125,GARHI,0651,THALI TALAI,098849,081250651098849,North,Rajasthani,314032,A
IN,Hindi,India,RAJASTHAN,08,BARMER,115,CHOHTAN,0584,THATHAR KADER,088837,081150584088837,North,Rajasthani,344704,A
IN,Hindi,India,RAJASTHAN,08,JAIPUR,110,CHAKSU,0550,THEEKARIYA MEENAN,081178,081100550081178,North,Rajasthani,303908,A
IN,Hindi,India,RAJASTHAN,08,KARAULI,107,MANDRAIL,0524,BAGPUR,076883,081070524076883,North,Rajasthani,322251,A
IN,Hindi,India,RAJASTHAN,08,ALWAR,104,KOTKASIM,0495,THETHAR BASNA,072182,081040495072182,North,Rajasthani,301401,A
IN,Hindi,India,RAJASTHAN,08,JAIPUR,110,SANGANER,0545,THIKARIYA,080072,081100545080072,North,Rajasthani,302042,A
IN,Hindi,India,RAJASTHAN,08,JAIPUR,110,CHOMU,0541,BAGRI,079346,081100541079346,North,Rajasthani,303602,A
IN,Hindi,India,RAJASTHAN,08,KOTA,127,LADPURA,0667,THOLANPUR,102106,081270667102106,North,Rajasthani,324010,A
IN,Hindi,India,RAJASTHAN,08,BARMER,115,SHEO,0577,THOOMBALI,086782,081150577086782,North,Rajasthani,344701,A
IN,Hindi,India,RAJASTHAN,08,DAUSA,109,LALSOT,0537,THOONI DHIRAJPURA,078862,081090537078862,North,Rajasthani,303503,A
IN,Hindi,India,RAJASTHAN,08,ALWAR,104,LACHHMANGARH,0503,MUKUNDPURA,073671,081040503073671,North,Rajasthani,321607,A
IN,Hindi,India,RAJASTHAN,08,KOTA,127,LADPURA,0667,MUKUNDPURA,102096,081270667102096,North,Rajasthani,325003,A
IN,Hindi,India,RAJASTHAN,08,ALWAR,104,TIJARA,0496,KHIDARPUR,072293,081040496072293,North,Rajasthani,301707,A
IN,Hindi,India,RAJASTHAN,08,PALI,118,SUMERPUR,0604,KHINDARA GAON,091244,081180604091244,North,Rajasthani,306708,A
IN,Hindi,India,RAJASTHAN,08,BARMER,115,BAYTOO,0578,KHINWALI SARA,087225,081150578087225,North,Rajasthani,344037,A
IN,Hindi,India,RAJASTHAN,08,NAGAUR,112,JAYAL,0559,KHINYALA,082708,081120559082708,North,Rajasthani,341023,A
IN,Hindi,India,RAJASTHAN,08,SAWAI MADHOPUR,108,MALARNA DOONGAR,0528,KHIRNI,077383,081080528077383,North,Rajasthani,322024,A
IN,Hindi,India,RAJASTHAN,08,JODHPUR,113,SHERGARH,0571,KHIYASARIYA,085185,081130571085185,North,Rajasthani,342025,A
IN,Hindi,India,RAJASTHAN,08,DAUSA,109,DAUSA,0536,KHOHRA KHURD,078451,081090536078451,North,Rajasthani,303325,A
IN,Hindi,India,RAJASTHAN,08,BHARATPUR,105,RUPBAS,0514,KHOHRI,075348,081050514075348,North,Rajasthani,321403,A
IN,Hindi,India,RAJASTHAN,08,BHILWARA,122,BEEJOLIYA,0638,MANJI SAHAB KA KHERA,096335,081220638096335,North,Rajasthani,311602,A
IN,Hindi,India,RAJASTHAN,08,BARMER,115,PACHPADRA,0579,MANJIWALA,087335,081150579087335,North,Rajasthani,344022,A
IN,Hindi,India,RAJASTHAN,08,NAGAUR,112,MAKRANA,0565,BALAGHANA,083651,081120565083651,North,Rajasthani,341302,A
IN,Hindi,India,RAJASTHAN,08,PRATAPGARH,131,PRATAPGARH,0699,BALALIYA,108490,081310699108490,North,Rajasthani,312605,A
IN,Hindi,India,RAJASTHAN,08,ALWAR,104,ALWAR,0499,KAKRALI,072748,081040499072748,North,Rajasthani,301001,A
IN,Hindi,India,RAJASTHAN,08,JHUJHUNU,103,JHUNJHUNUN,0487,KAKREU KHURD,070896,081030487070896,North,Rajasthani,331028,A
IN,Hindi,India,RAJASTHAN,08,ALWAR,104,RAJGARH,0502,KALA DEEWALA,073350,081040502073350,North,Rajasthani,301410,A
IN,Hindi,India,RAJASTHAN,08,UDAIPUR,130,MAVLI,0685,KALA NADA,105415,081300685105415,North,Rajasthani,313204,A
IN,Hindi,India,RAJASTHAN,08,JAISALMER,114,JAISALMER,0574,ASOO KA TALA,085835,081140574085835,North,Rajasthani,345022,A
IN,Hindi,India,RAJASTHAN,08,KARAULI,107,MANDRAIL,0524,KALAKHET,076842,081070524076842,North,Rajasthani,322251,A
IN,Hindi,India,RAJASTHAN,08,BHILWARA,122,RAIPUR,0632,KALAL KHERI,095329,081220632095329,North,Rajasthani,311803,A
IN,Hindi,India,RAJASTHAN,08,CHURU,102,RAJGARH,0482,KALAL KOTRA,070103,081020482070103,North,Rajasthani,331023,A
IN,Hindi,India,RAJASTHAN,08,PALI,118,ROHAT,0600,KALALI,090783,081180600090783,North,Rajasthani,306421,A
IN,Hindi,India,RAJASTHAN,08,DAUSA,109,MAHWA,0534,MAUSAMPUR PATTI,078224,081090534078224,North,Rajasthani,321608,A
IN,Hindi,India,RAJASTHAN,08,JAISALMER,114,POKARAN,0575,MAWA,086275,081140575086275,North,Rajasthani,345023,A
IN,Hindi,India,RAJASTHAN,08,JHUJHUNU,103,CHIRAWA,0488,KAJI,071115,081030488071115,North,Rajasthani,333031,A
IN,Hindi,India,RAJASTHAN,08,KOTA,127,PIPALDA,0665,KAJLIYA,101800,081270665101800,North,Rajasthani,325004,A
IN,Hindi,India,RAJASTHAN,08,BANSWARA,125,KUSHALGARH,0654,KAJOORA,099826,081250654099826,North,Rajasthani,327801,A
IN,Hindi,India,RAJASTHAN,08,BARMER,115,SHEO,0577,MATI KA GOL,086836,081150577086836,North,Rajasthani,344705,A
IN,Hindi,India,RAJASTHAN,08,CHITTORGARH,126,KAPASAN,0660,BABRANA,100973,081260660100973,North,Rajasthani,312202,A
IN,Hindi,India,RAJASTHAN,08,BARMER,115,RAMSAR,0583,KINDEEYA CHANIYON KI DHANI,088606,081150583088606,North,Rajasthani,344502,A
IN,Hindi,India,RAJASTHAN,08,DAUSA,109,BASWA,0533,KUKARWARI,077988,081090533077988,North,Rajasthani,303327,A
IN,Hindi,India,RAJASTHAN,08,BARAN,128,MANGROL,0670,BALAPURA,102595,081280670102595,North,Rajasthani,325215,A
IN,Hindi,India,RAJASTHAN,08,BARAN,128,KISHANGANJ,0674,BALAPURA,103127,081280674103127,North,Rajasthani,325224,A
IN,Hindi,India,RAJASTHAN,08,TONK,120,MALPURA,0615,BALAPURA GUJRAN,092521,081200615092521,North,Rajasthani,304504,A
IN,Hindi,India,RAJASTHAN,08,BUNDI,121,BUNDI,0626,BALDEOPURA,094342,081210626094342,North,Rajasthani,323803,A
IN,Hindi,India,RAJASTHAN,08,BHARATPUR,105,DEEG,0508,BALDEOWAS,074319,081050508074319,North,Rajasthani,321203,A
IN,Hindi,India,RAJASTHAN,08,JHALAWAR,129,AKLERA,0680,BALDEOPURA,104476,081290680104476,North,Rajasthani,326035,A
IN,Hindi,India,RAJASTHAN,08,NAGAUR,112,DEGANA,0563,JODHRAS,083357,081120563083357,North,Rajasthani,341503,A
IN,Hindi,India,RAJASTHAN,08,BARMER,115,GUDHA MALANI,0581,JOGASAR,087853,081150581087853,North,Rajasthani,344033,A
IN,Hindi,India,RAJASTHAN,08,JALOR,116,BHINMAL,0588,JOGAU,089431,081160588089431,North,Rajasthani,343029,A
IN,Hindi,India,RAJASTHAN,08,JAISALMER,114,FATEHGARH,0576,JOGIDAS KA GAON,086586,081140576086586,North,Rajasthani,345027,A
IN,Hindi,India,RAJASTHAN,08,HANUMANGARH,100,NOHAR,0471,JOGIYASAN NO.3,068747,081000471068747,North,Rajasthani,335523,A
IN,Hindi,India,RAJASTHAN,08,JODHPUR,113,SHERGARH,0571,JOGRAJ NAGAR,085378,081130571085378,North,Rajasthani,342023,A
IN,Hindi,India,RAJASTHAN,08,HANUMANGARH,100,NOHAR,0471,JOKHASAR,068762,081000471068762,North,Rajasthani,335523,A
IN,Hindi,India,RAJASTHAN,08,BANSWARA,125,GARHI,0651,JOLANA,098860,081250651098860,North,Rajasthani,314032,A
IN,Hindi,India,RAJASTHAN,08,JODHPUR,113,PHALODI,0567,BABA KA DHORA,084132,081130567084132,North,Rajasthani,342307,A
IN,Hindi,India,RAJASTHAN,08,BANSWARA,125,GARHI,0651,OJARIYA,098687,081250651098687,North,Rajasthani,327022,A
IN,Hindi,India,RAJASTHAN,08,BHARATPUR,105,BAYANA,0513,OKHALIYA PURA,075188,081050513075188,North,Rajasthani,321405,A
IN,Hindi,India,RAJASTHAN,08,DHOLPUR,106,DHAULPUR,0518,MAUZA KA NAGLA,075889,081060518075889,North,Rajasthani,328024,A
IN,Hindi,India,RAJASTHAN,08,BHARATPUR,105,DEEG,0508,MAWAI,074366,081050508074366,North,Rajasthani,321206,A
IN,Hindi,India,RAJASTHAN,08,BARAN,128,CHHIPABAROD,0677,MAWASA,103610,081280677103610,North,Rajasthani,325219,A
IN,Hindi,India,RAJASTHAN,08,DUNGARPUR,124,SAGWARA,0648,MAWITA,098013,081240648098013,North,Rajasthani,314404,A
IN,Hindi,India,RAJASTHAN,08,BARAN,128,ANTAH,0671,GOVINDPURA,102689,081280671102689,North,Rajasthani,325209,A
IN,Hindi,India,RAJASTHAN,08,BARAN,128,SHAHBAD,0675,BALAPURA,103295,081280675103295,North,Rajasthani,325224,A
IN,Hindi,India,RAJASTHAN,08,BHILWARA,122,ASIND,0627,BALAPURA,094629,081220627094629,North,Rajasthani,311204,A
IN,Hindi,India,RAJASTHAN,08,BUNDI,121,NAINWA,0623,BALAPURA,093909,081210623093909,North,Rajasthani,323801,A
IN,Hindi,India,RAJASTHAN,08,NAGAUR,112,DEGANA,0563,IGYASANI,083302,081120563083302,North,Rajasthani,341514,A
IN,Hindi,India,RAJASTHAN,08,BUNDI,121,NAINWA,0623,BALAPURA,093945,081210623093945,North,Rajasthani,323801,A
IN,Hindi,India,RAJASTHAN,08,JODHPUR,113,LUNI,0572,IMAM NAGAR,085574,081130572085574,North,Rajasthani,342014,A
IN,Hindi,India,RAJASTHAN,08,CHITTORGARH,126,RAWATBHATA,0658,BALAPURA,100438,081260658100438,North,Rajasthani,323304,A
IN,Hindi,India,RAJASTHAN,08,JAIPUR,110,SANGANER,0545,MUHANA,080089,081100545080089,North,Rajasthani,302029,A
IN,Hindi,India,RAJASTHAN,08,SIKAR,111,SRI MADHOPUR,0555,KOTRI DHAYLAN,082080,081110555082080,North,Rajasthani,332404,A
IN,Hindi,India,RAJASTHAN,08,DUNGARPUR,124,DUNGARPUR,0646,KUBERA,097724,081240646097724,North,Rajasthani,314028,A
IN,Hindi,India,RAJASTHAN,08,BHILWARA,122,JAHAZPUR,0636,KUCHALWARA KALAN,095874,081220636095874,North,Rajasthani,311201,A
IN,Hindi,India,RAJASTHAN,08,SIKAR,111,SIKAR,0553,KUDLI,081556,081110553081556,North,Rajasthani,332024,A
IN,Hindi,India,RAJASTHAN,08,CHURU,102,TARANAGAR,0481,BILIYA,069968,081020481069968,North,Rajasthani,331304,A
IN,Hindi,India,RAJASTHAN,08,JODHPUR,113,BILARA,0573,BINAWAS,085741,081130573085741,North,Rajasthani,342027,A
IN,Hindi,India,RAJASTHAN,08,SAWAI MADHOPUR,108,BAMANWAS,0527,BINJARI,077321,081080527077321,North,Rajasthani,322214,A
IN,Hindi,India,RAJASTHAN,08,PRATAPGARH,131,ARNOD,0700,NARAYANPURA,108766,081310700108766,North,Rajasthani,312615,A
IN,Hindi,India,RAJASTHAN,08,SIKAR,111,NEEM-KA-THANA,0556,NARAYANPURA,082301,081110556082301,North,Rajasthani,332718,A
IN,Hindi,India,RAJASTHAN,08,ALWAR,104,MANDAWAR,0494,NAREDI,072079,081040494072079,North,Rajasthani,301404,A
IN,Hindi,India,RAJASTHAN,08,JAIPUR,110,CHAKSU,0550,NAROTTAMPURA,081135,081100550081135,North,Rajasthani,303908,A
IN,Hindi,India,RAJASTHAN,08,KOTA,127,DIGOD,0666,NARPATKHERI,101872,081270666101872,North,Rajasthani,325204,A
IN,Hindi,India,RAJASTHAN,08,BARAN,128,ATRU,0673,NARSINGHPURA,102808,081280673102808,North,Rajasthani,325207,A
IN,Hindi,India,RAJASTHAN,08,JHALAWAR,129,JHALRAPATAN,0679,NARSINGHPURA,104336,081290679104336,North,Rajasthani,326022,A
IN,Hindi,India,RAJASTHAN,08,KOTA,127,DIGOD,0666,NARSINGHPURA,101859,081270666101859,North,Rajasthani,325204,A
IN,Hindi,India,RAJASTHAN,08,BANSWARA,125,GARHI,0651,NARSINGPURA MAGRI,098809,081250651098809,North,Rajasthani,314032,A
IN,Hindi,India,RAJASTHAN,08,JHUJHUNU,103,UDAIPURWATI,0492,NATAS,071687,081030492071687,North,Rajasthani,333020,A
IN,Hindi,India,RAJASTHAN,08,ALWAR,104,RAJGARH,0502,NATHALWARA,073365,081040502073365,North,Rajasthani,301415,A
IN,Hindi,India,RAJASTHAN,08,NAGAUR,112,NAGAUR,0560,NATHANARA,082811,081120560082811,North,Rajasthani,341001,A
IN,Hindi,India,RAJASTHAN,08,JODHPUR,113,SHERGARH,0571,NATHASAR,085435,081130571085435,North,Rajasthani,342028,A
IN,Hindi,India,RAJASTHAN,08,ALWAR,104,KATHUMAR,0504,KHERA KALYANPUR,073808,081040504073808,North,Rajasthani,321605,A
IN,Hindi,India,RAJASTHAN,08,AJMER,119,BHINAY,0612,KHERI,092268,081190612092268,North,Rajasthani,305627,A
IN,Hindi,India,RAJASTHAN,08,ALWAR,104,KOTKASIM,0495,KHERI,072156,081040495072156,North,Rajasthani,301401,A
IN,Hindi,India,RAJASTHAN,08,DAUSA,109,BASWA,0533,KHERI,078069,081090533078069,North,Rajasthani,303313,A
IN,Hindi,India,RAJASTHAN,08,JHALAWAR,129,PIRAWA,0683,KHERI,105178,081290683105178,North,Rajasthani,326034,A
IN,Hindi,India,RAJASTHAN,08,CHITTORGARH,126,BARI SADRI,0664,KHERI KHURD,101604,081260664101604,North,Rajasthani,312403,A
IN,Hindi,India,RAJASTHAN,08,JHALAWAR,129,AKLERA,0680,KHERKHERA NEAR KISHORPURA,104501,081290680104501,North,Rajasthani,326039,A
IN,Hindi,India,RAJASTHAN,08,SAWAI MADHOPUR,108,SAWAI MADHOPUR,0531,KHERLA,077700,081080531077700,North,Rajasthani,322001,A
IN,Hindi,India,RAJASTHAN,08,DHOLPUR,106,DHAULPUR,0518,KHERLI,075920,081060518075920,North,Rajasthani,328024,A
IN,Hindi,India,RAJASTHAN,08,BHARATPUR,105,WEIR,0512,KHERLI BRAHMANAN,074958,081050512074958,North,Rajasthani,321409,A
IN,Hindi,India,RAJASTHAN,08,KOTA,127,DIGOD,0666,KHERLI DHAKRAN,101932,081270666101932,North,Rajasthani,325204,A
IN,Hindi,India,RAJASTHAN,08,BUNDI,121,KESHORAIPATAN,0625,KHERLI MEHTA,094262,081210625094262,North,Rajasthani,323301,A
IN,Hindi,India,RAJASTHAN,08,KOTA,127,DIGOD,0666,KHERLI TAWRAN,101897,081270666101897,North,Rajasthani,325204,A
IN,Hindi,India,RAJASTHAN,08,BUNDI,121,NAINWA,0623,KHEROONA,093930,081210623093930,North,Rajasthani,323801,A
IN,Hindi,India,RAJASTHAN,08,DUNGARPUR,124,DUNGARPUR,0646,KHERWARA,097702,081240646097702,North,Rajasthani,314001,A
IN,Hindi,India,RAJASTHAN,08,JODHPUR,113,SHERGARH,0571,KHET NAGAR,085275,081130571085275,North,Rajasthani,342025,A
IN,Hindi,India,RAJASTHAN,08,CHITTORGARH,126,DUNGLA,0661,KISHAN KARERI,101144,081260661101144,North,Rajasthani,312402,A
IN,Hindi,India,RAJASTHAN,08,RAJSAMAND,123,AMET,0641,KISHAN PURIYA,096755,081230641096755,North,Rajasthani,313332,A
IN,Hindi,India,RAJASTHAN,08,ALWAR,104,ALWAR,0499,KISHANPUR,072769,081040499072769,North,Rajasthani,301001,A
IN,Hindi,India,RAJASTHAN,08,BARAN,128,MANGROL,0670,KISHANPURA,102610,081280670102610,North,Rajasthani,325215,A
IN,Hindi,India,RAJASTHAN,08,SIKAR,111,FATEHPUR,0551,KISHANPURA,081270,081110551081270,North,Rajasthani,332304,A
IN,Hindi,India,RAJASTHAN,08,DAUSA,109,DAUSA,0536,KISHANPURA TAPRIYA,078628,081090536078628,North,Rajasthani,303505,A
IN,Hindi,India,RAJASTHAN,08,DAUSA,109,SIKRAI,0535,BAIRADA KHURD,078356,081090535078356,North,Rajasthani,303501,A
IN,Hindi,India,RAJASTHAN,08,DAUSA,109,DAUSA,0536,MANGA BHATA,078487,081090536078487,North,Rajasthani,303303,A
IN,Hindi,India,RAJASTHAN,08,BANSWARA,125,BANSWARA,0652,KHUNTDIYA,099068,081250652099068,North,Rajasthani,327001,A
IN,Hindi,India,RAJASTHAN,08,BARAN,128,ATRU,0673,KHURI,102830,081280673102830,North,Rajasthani,325218,A
IN,Hindi,India,RAJASTHAN,08,DAUSA,109,DAUSA,0536,KHURI KHURD,078481,081090536078481,North,Rajasthani,303507,A
IN,Hindi,India,RAJASTHAN,08,DHOLPUR,106,RAJAKHERA,0519,KHURILA,076124,081060519076124,North,Rajasthani,328025,A
IN,Hindi,India,RAJASTHAN,08,BHARATPUR,105,RUPBAS,0514,JINDPURA,075254,081050514075254,North,Rajasthani,321404,A
IN,Hindi,India,RAJASTHAN,08,ALWAR,104,RAJGARH,0502,JIRAWALI,073297,081040502073297,North,Rajasthani,301408,A
IN,Hindi,India,RAJASTHAN,08,JAIPUR,110,AMBER,0547,ATALBIHARIPURA,080310,081100547080310,North,Rajasthani,303701,A
IN,Hindi,India,RAJASTHAN,08,KOTA,127,SANGOD,0669,JITHANI,102499,081270669102499,North,Rajasthani,325207,A
IN,Hindi,India,RAJASTHAN,08,BARMER,115,SHEO,0577,JIYANIYON KI BASTI,086882,081150577086882,North,Rajasthani,344701,A
IN,Hindi,India,RAJASTHAN,08,SAWAI MADHOPUR,108,MALARNA DOONGAR,0528,BAHTER,077363,081080528077363,North,Rajasthani,322028,A
IN,Hindi,India,RAJASTHAN,08,BIKANER,101,POOGAL,0474,JODHASAR,069187,081010474069187,North,Rajasthani,334808,A
IN,Hindi,India,RAJASTHAN,08,BARMER,115,SHEO,0577,MOSERI,086728,081150577086728,North,Rajasthani,344011,A
IN,Hindi,India,RAJASTHAN,08,JHALAWAR,129,AKLERA,0680,MOTHPURIYA,104593,081290680104593,North,Rajasthani,326033,A
IN,Hindi,India,RAJASTHAN,08,JODHPUR,113,PHALODI,0567,MOTI NAGAR,084085,081130567084085,North,Rajasthani,342301,A
IN,Hindi,India,RAJASTHAN,08,BUNDI,121,BUNDI,0626,MOTI PURA,094384,081210626094384,North,Rajasthani,323001,A
IN,Hindi,India,RAJASTHAN,08,JAIPUR,110,CHOMU,0541,BAI KA BAS,079406,081100541079406,North,Rajasthani,303801,A
IN,Hindi,India,RAJASTHAN,08,BARAN,128,SHAHBAD,0675,NONPURA,103204,081280675103204,North,Rajasthani,325217,A
IN,Hindi,India,RAJASTHAN,08,BHARATPUR,105,BHARATPUR,0511,NOORPUR,074760,081050511074760,North,Rajasthani,321001,A
IN,Hindi,India,RAJASTHAN,08,BUNDI,121,BUNDI,0626,MANGLI,094414,081210626094414,North,Rajasthani,323001,A
IN,Hindi,India,RAJASTHAN,08,BUNDI,121,HINDOLI,0622,MANGLI KALAN,093776,081210622093776,North,Rajasthani,323023,A
IN,Hindi,India,RAJASTHAN,08,JHALAWAR,129,AKLERA,0680,MANGTA,104396,081290680104396,North,Rajasthani,326033,A
IN,Hindi,India,RAJASTHAN,08,JHALAWAR,129,AKLERA,0680,KOTRA,104563,081290680104563,North,Rajasthani,326033,A
IN,Hindi,India,RAJASTHAN,08,TONK,120,DEOLI,0620,KOTRA,093434,081200620093434,North,Rajasthani,304026,A
IN,Hindi,India,RAJASTHAN,08,BHILWARA,122,KOTRI,0635,KOTRI,095746,081220635095746,North,Rajasthani,311603,A
IN,Hindi,India,RAJASTHAN,08,PALI,118,RAIPUR,0598,KOTRI,090563,081180598090563,North,Rajasthani,306102,A
IN,Hindi,India,RAJASTHAN,08,JAIPUR,110,JAMWA RAMGARH,0548,MATHURA DAS PURA,080622,081100548080622,North,Rajasthani,302027,A
IN,Hindi,India,RAJASTHAN,08,DAUSA,109,DAUSA,0536,MATWAS,078586,081090536078586,North,Rajasthani,303303,A
IN,Hindi,India,RAJASTHAN,08,DAUSA,109,BASWA,0533,MAU KALAN,078104,081090533078104,North,Rajasthani,303315,A
IN,Hindi,India,RAJASTHAN,08,RAJSAMAND,123,DEOGARH,0640,NARANA,096634,081230640096634,North,Rajasthani,313332,A
IN,Hindi,India,RAJASTHAN,08,SAWAI MADHOPUR,108,GANGAPUR,0526,NARAYANPUR,077185,081080526077185,North,Rajasthani,322203,A
IN,Hindi,India,RAJASTHAN,08,BARMER,115,RAMSAR,0583,NOPATIYA,088479,081150583088479,North,Rajasthani,344502,A
IN,Hindi,India,RAJASTHAN,08,JAIPUR,110,JAIPUR,0546,MANSHARAMPURA,080196,081100546080196,North,Rajasthani,302012,A
IN,Hindi,India,RAJASTHAN,08,JAISALMER,114,JAISALMER,0574,MARAKH KI DHANI,085962,081140574085962,North,Rajasthani,345001,A
IN,Hindi,India,RAJASTHAN,08,CHITTORGARH,126,DUNGLA,0661,MATA KHERA,101152,081260661101152,North,Rajasthani,312402,A
IN,Hindi,India,RAJASTHAN,08,BHILWARA,122,KOTRI,0635,MATAJI KA KHERA (MALIYON KA JHONPARA),095676,081220635095676,North,Rajasthani,311202,A
IN,Hindi,India,RAJASTHAN,08,SIKAR,111,LACHHMANGARH,0552,MANASI GORAN,081402,081110552081402,North,Rajasthani,332312,A
IN,Hindi,India,RAJASTHAN,08,JALOR,116,BHINMAL,0588,BIKANWAS,089418,081160588089418,North,Rajasthani,307515,A
IN,Hindi,India,RAJASTHAN,08,PALI,118,SOJAT,0599,BILAWAS,090652,081180599090652,North,Rajasthani,306104,A
IN,Hindi,India,RAJASTHAN,08,DAUSA,109,BASWA,0533,MONAWAS,078005,081090533078005,North,Rajasthani,303326,A
IN,Hindi,India,RAJASTHAN,08,BARMER,115,BAYTOO,0578,MOOLANI,086966,081150578086966,North,Rajasthani,344035,A
IN,Hindi,India,RAJASTHAN,08,BARMER,115,PACHPADRA,0579,MOOLJI KI DHANI,087431,081150579087431,North,Rajasthani,344026,A
IN,Hindi,India,RAJASTHAN,08,BIKANER,101,NOKHA,0477,MOOLWAS,069686,081010477069686,North,Rajasthani,334803,A
IN,Hindi,India,RAJASTHAN,08,NAGAUR,112,NAWA,0566,MOONDGASOI,083943,081120566083943,North,Rajasthani,341509,A
IN,Hindi,India,RAJASTHAN,08,JAIPUR,110,JAMWA RAMGARH,0548,MOONDLA,080614,081100548080614,North,Rajasthani,302027,A
IN,Hindi,India,RAJASTHAN,08,JAIPUR,110,PHULERA (HQ.SAMBHAR),0542,MOONDWARA,079571,081100542079571,North,Rajasthani,303328,A
IN,Hindi,India,RAJASTHAN,08,BANSWARA,125,BANSWARA,0652,MOONGTHALI,098881,081250652098881,North,Rajasthani,327025,A
IN,Hindi,India,RAJASTHAN,08,DHOLPUR,106,DHAULPUR,0518,MOREDHA,075907,081060518075907,North,Rajasthani,328024,A
IN,Hindi,India,RAJASTHAN,08,JAIPUR,110,PHULERA (HQ.SAMBHAR),0542,MORSAR,079676,081100542079676,North,Rajasthani,303348,A
IN,Hindi,India,RAJASTHAN,08,KOTA,127,SANGOD,0669,MORU KHURD,102529,081270669102529,North,Rajasthani,325602,A
IN,Hindi,India,RAJASTHAN,08,BHILWARA,122,KOTRI,0635,NOHARA,095810,081220635095810,North,Rajasthani,311601,A
IN,Hindi,India,RAJASTHAN,08,TONK,120,NIWAI,0617,NOHTA,092970,081200617092970,North,Rajasthani,304025,A
IN,Hindi,India,RAJASTHAN,08,JAIPUR,110,PHAGI,0544,NONDPURA,080026,081100544080026,North,Rajasthani,303006,A
IN,Hindi,India,RAJASTHAN,08,JHUJHUNU,103,JHUNJHUNUN,0487,MAROT KA BAS,071080,081030487071080,North,Rajasthani,333024,A
IN,Hindi,India,RAJASTHAN,08,JAIPUR,110,MAUZAMABAD,0543,MARWA,079705,081100543079705,North,Rajasthani,303348,A
IN,Hindi,India,RAJASTHAN,08,ALWAR,104,RAJGARH,0502,GOTH,073382,081040502073382,North,Rajasthani,301408,A
IN,Hindi,India,RAJASTHAN,08,JHUJHUNU,103,BUHANA,0489,GOTH,071384,081030489071384,North,Rajasthani,333516,A
IN,Hindi,India,RAJASTHAN,08,PRATAPGARH,131,DHARIAWAD,0696,GOTHRA,108031,081310696108031,North,Rajasthani,312626,A
IN,Hindi,India,RAJASTHAN,08,PRATAPGARH,131,PRATAPGARH,0699,MAND KALAN,108412,081310699108412,North,Rajasthani,312605,A
IN,Hindi,India,RAJASTHAN,08,PALI,118,MARWAR JUNCTION,0602,MANDA,090940,081180602090940,North,Rajasthani,306103,A
IN,Hindi,India,RAJASTHAN,08,CHITTORGARH,126,NIMBAHERA,0663,MANDA GULFAROSHAN,101430,081260663101430,North,Rajasthani,312601,A
IN,Hindi,India,RAJASTHAN,08,KOTA,127,LADPURA,0667,MANDALYA,102101,081270667102101,North,Rajasthani,325003,A
IN,Hindi,India,RAJASTHAN,08,UDAIPUR,130,MAVLI,0685,MANDAP KA DHANA,105407,081300685105407,North,Rajasthani,313204,A
IN,Hindi,India,RAJASTHAN,08,BARMER,115,PACHPADRA,0579,MANDAPURA,087310,081150579087310,North,Rajasthani,344032,A
IN,Hindi,India,RAJASTHAN,08,JHUJHUNU,103,UDAIPURWATI,0492,MANDAWARA,071752,081030492071752,North,Rajasthani,333302,A
IN,Hindi,India,RAJASTHAN,08,CHITTORGARH,126,BEGUN,0657,MANDAWARI,100220,081260657100220,North,Rajasthani,312023,A
IN,Hindi,India,RAJASTHAN,08,BHILWARA,122,RAIPUR,0632,MANDKA KHERA,095391,081220632095391,North,Rajasthani,311805,A
IN,Hindi,India,RAJASTHAN,08,BARAN,128,ANTAH,0671,MANDPUR,102634,081280671102634,North,Rajasthani,325206,A
IN,Hindi,India,RAJASTHAN,08,ALWAR,104,TIJARA,0496,NANGAL,072329,081040496072329,North,Rajasthani,301411,A
IN,Hindi,India,RAJASTHAN,08,BHARATPUR,105,PAHARI,0505,NANGAL,073837,081050505073837,North,Rajasthani,321204,A
IN,Hindi,India,RAJASTHAN,08,ALWAR,104,KISHANGARH BAS,0497,NANGAL MAUJIYA,072457,081040497072457,North,Rajasthani,301404,A
IN,Hindi,India,RAJASTHAN,08,ALWAR,104,RAMGARH,0498,NANGAL TAPPA,072661,081040498072661,North,Rajasthani,301026,A
IN,Hindi,India,RAJASTHAN,08,JAIPUR,110,AMBER,0547,NANGAL TURKAN,080402,081100547080402,North,Rajasthani,303712,A
IN,Hindi,India,RAJASTHAN,08,KARAULI,107,SAPOTRA,0525,NANPUR,077037,081070525077037,North,Rajasthani,322243,A
IN,Hindi,India,RAJASTHAN,08,NAGAUR,112,MERTA,0562,MANKIYAS,083257,081120562083257,North,Rajasthani,341514,A
IN,Hindi,India,RAJASTHAN,08,SIROHI,117,SIROHI,0593,MANKRODA,089997,081170593089997,North,Rajasthani,307001,A
IN,Hindi,India,RAJASTHAN,08,ALWAR,104,RAJGARH,0502,MANPURA,073283,081040502073283,North,Rajasthani,301414,A
IN,Hindi,India,RAJASTHAN,08,JHALAWAR,129,MANOHAR THANA,0681,MANPURA,104740,081290681104740,North,Rajasthani,326037,A
IN,Hindi,India,RAJASTHAN,08,PRATAPGARH,131,ARNOD,0700,MANPURA KHURD,108858,081310700108858,North,Rajasthani,312619,A
IN,Hindi,India,RAJASTHAN,08,JODHPUR,113,OSIAN,0568,MANSAGAR,084679,081130568084679,North,Rajasthani,342037,A
IN,Hindi,India,RAJASTHAN,08,JALOR,116,SANCHORE,0590,KILOOPIYA,089725,081160590089725,North,Rajasthani,343041,A
IN,Hindi,India,RAJASTHAN,08,NAGAUR,112,PARBATSAR,0564,KINSARIYA,083513,081120564083513,North,Rajasthani,341512,A
IN,Hindi,India,RAJASTHAN,08,CHITTORGARH,126,BARI SADRI,0664,MASAB KA KHERA,101583,081260664101583,North,Rajasthani,312403,A
IN,Hindi,India,RAJASTHAN,08,BARAN,128,CHHIPABAROD,0677,MASALPURA,103765,081280677103765,North,Rajasthani,325221,A
IN,Hindi,India,RAJASTHAN,08,JODHPUR,113,PHALODI,0567,MASHALA,083972,081130567083972,North,Rajasthani,342301,A
IN,Hindi,India,RAJASTHAN,08,SAWAI MADHOPUR,108,GANGAPUR,0526,KHOONTLA SALAUNA,077143,081080526077143,North,Rajasthani,322201,A
IN,Hindi,India,RAJASTHAN,08,BHILWARA,122,RAIPUR,0632,KHOOTIYA,095376,081220632095376,North,Rajasthani,311805,A
IN,Hindi,India,RAJASTHAN,08,JAISALMER,114,JAISALMER,0574,KHUIFATOOJANWALI@KHADOOJANWALI,086013,081140574086013,North,Rajasthani,345028,A
IN,Hindi,India,RAJASTHAN,08,HANUMANGARH,100,NOHAR,0471,KHUIYAN,068766,081000471068766,North,Rajasthani,335523,A
IN,Hindi,India,RAJASTHAN,08,DUNGARPUR,124,ASPUR,0647,KHUMANPUR,097849,081240647097849,North,Rajasthani,314034,A
IN,Hindi,India,RAJASTHAN,08,SAWAI MADHOPUR,108,KHANDAR,0532,BAJOLI,077771,081080532077771,North,Rajasthani,322025,A
IN,Hindi,India,RAJASTHAN,08,BARAN,128,CHHIPABAROD,0677,BAJRANGPURA,103682,081280677103682,North,Rajasthani,325221,A
IN,Hindi,India,RAJASTHAN,08,JHALAWAR,129,KHANPUR,0678,BAL KHOH,103953,081290678103953,North,Rajasthani,326035,A
IN,Hindi,India,RAJASTHAN,08,BIKANER,101,KOLAYAT,0476,BALA KA GOL,069554,081010476069554,North,Rajasthani,334303,A
IN,Hindi,India,RAJASTHAN,08,JAIPUR,110,SHAHPURA,0540,MAMTORI KHURD,079307,081100540079307,North,Rajasthani,303104,A
IN,Hindi,India,RAJASTHAN,08,BANSWARA,125,KUSHALGARH,0654,BHEEM KHORA,099712,081250654099712,North,Rajasthani,327602,A
IN,Hindi,India,RAJASTHAN,08,TONK,120,DEOLI,0620,BHEEMPURA,093349,081200620093349,North,Rajasthani,304802,A
IN,Hindi,India,RAJASTHAN,08,JAIPUR,110,KOTPUTLI,0538,BHEEVJI,079138,081100538079138,North,Rajasthani,303102,A
IN,Hindi,India,RAJASTHAN,08,BARMER,115,BARMER,0582,ABHANIYON KA SARA,088295,081150582088295,North,Rajasthani,344703,A
IN,Hindi,India,RAJASTHAN,08,ALWAR,104,TIJARA,0496,ABHANPUR,072304,081040496072304,North,Rajasthani,301707,A
IN,Hindi,India,RAJASTHAN,08,PRATAPGARH,131,DHARIAWAD,0696,DATALIYA,107887,081310696107887,North,Rajasthani,312625,A
IN,Hindi,India,RAJASTHAN,08,TONK,120,DEOLI,0620,DATOONDA,093402,081200620093402,North,Rajasthani,304802,A
IN,Hindi,India,RAJASTHAN,08,JAIPUR,110,JAIPUR,0546,BHAMBHORI,080206,081100546080206,North,Rajasthani,303706,A
IN,Hindi,India,RAJASTHAN,08,UDAIPUR,130,JHADOL,0688,BHAMTI,106331,081300688106331,North,Rajasthani,313701,A
IN,Hindi,India,RAJASTHAN,08,BARMER,115,GUDHA MALANI,0581,BHANA MAGRA,087885,081150581087885,North,Rajasthani,344033,A
IN,Hindi,India,RAJASTHAN,08,BHARATPUR,105,KAMAN,0506,BHANDARA,074000,081050506074000,North,Rajasthani,321022,A
IN,Hindi,India,RAJASTHAN,08,TONK,120,MALPURA,0615,ADOOSYA,092552,081200615092552,North,Rajasthani,304503,A
IN,Hindi,India,RAJASTHAN,08,UDAIPUR,130,SALUMBAR,0692,BHANOR,107241,081300692107241,North,Rajasthani,313038,A
IN,Hindi,India,RAJASTHAN,08,RAJSAMAND,123,AMET,0641,DHUKAL KHERA,096686,081230641096686,North,Rajasthani,313332,A
IN,Hindi,India,RAJASTHAN,08,BANSWARA,125,BAGIDORA,0653,DHULIYA GARH,099469,081250653099469,North,Rajasthani,327601,A
IN,Hindi,India,RAJASTHAN,08,CHURU,102,SARDARSHAHAR,0483,ADSISAR,070347,081020483070347,North,Rajasthani,331403,A
IN,Hindi,India,RAJASTHAN,08,AJMER,119,PEESANGAN,0608,DEVNAGAR,091667,081190608091667,North,Rajasthani,305204,A
IN,Hindi,India,RAJASTHAN,08,JODHPUR,113,BHOPALGARH,0569,DEVNAGAR,084836,081130569084836,North,Rajasthani,342601,A
IN,Hindi,India,RAJASTHAN,08,PALI,118,RAIPUR,0598,DEVNAGAR,090571,081180598090571,North,Rajasthani,306301,A
IN,Hindi,India,RAJASTHAN,08,UDAIPUR,130,GOGUNDA,0686,DEVRANAMAN,105640,081300686105640,North,Rajasthani,313704,A
IN,Hindi,India,RAJASTHAN,08,UDAIPUR,130,SARADA,0693,DEWALA,107372,081300693107372,North,Rajasthani,313901,A
IN,Hindi,India,RAJASTHAN,08,BARMER,115,BARMER,0582,DEWANIYON KI DHANI,088369,081150582088369,North,Rajasthani,344001,A
IN,Hindi,India,RAJASTHAN,08,CHITTORGARH,126,BEGUN,0657,DHAMANCHA,100398,081260657100398,North,Rajasthani,312023,A
IN,Hindi,India,RAJASTHAN,08,BHILWARA,122,BANERA,0630,DHAMANIYA,095031,081220630095031,North,Rajasthani,311024,A
IN,Hindi,India,RAJASTHAN,08,ALWAR,104,RAJGARH,0502,DHAMRED,073310,081040502073310,North,Rajasthani,301414,A
IN,Hindi,India,RAJASTHAN,08,JAIPUR,110,JAMWA RAMGARH,0548,DHAMSYA,080679,081100548080679,North,Rajasthani,303305,A
IN,Hindi,India,RAJASTHAN,08,UDAIPUR,130,MAVLI,0685,DHANA,105462,081300685105462,North,Rajasthani,313022,A
IN,Hindi,India,RAJASTHAN,08,GANGANAGAR,099,GANGANAGAR,0458,6 LNP,064477,080990458064477,North,Rajasthani,335002,A
IN,Hindi,India,RAJASTHAN,08,UDAIPUR,130,VALLABHNAGAR,0690,DERAWAD,106855,081300690106855,North,Rajasthani,313903,A
IN,Hindi,India,RAJASTHAN,08,HANUMANGARH,100,HANUMANGARH,0468,6 MOD,067711,081000468067711,North,Rajasthani,335512,A
IN,Hindi,India,RAJASTHAN,08,HANUMANGARH,100,SANGARIA,0466,6 NGR,067278,081000466067278,North,Rajasthani,335065,A
IN,Hindi,India,RAJASTHAN,08,HANUMANGARH,100,BHADRA,0472,6 NTR,068812,081000472068812,North,Rajasthani,335504,A
IN,Hindi,India,RAJASTHAN,08,GANGANAGAR,099,RAISINGHNAGAR,0461,6 PTD-A,065478,080990461065478,North,Rajasthani,335051,A
IN,Hindi,India,RAJASTHAN,08,NAGAUR,112,NAWA,0566,BUTINATHPURA,083792,081120566083792,North,Rajasthani,341519,A
IN,Hindi,India,RAJASTHAN,08,BARMER,115,GUDHA MALANI,0581,ADEL,087834,081150581087834,North,Rajasthani,344033,A
IN,Hindi,India,RAJASTHAN,08,KARAULI,107,HINDAUN,0522,DHURSI,076449,081070522076449,North,Rajasthani,322236,A
IN,Hindi,India,RAJASTHAN,08,BARAN,128,BARAN,0672,BORINA,102764,081280672102764,North,Rajasthani,325205,A
IN,Hindi,India,RAJASTHAN,08,KOTA,127,DIGOD,0666,BORKHERA,101911,081270666101911,North,Rajasthani,325204,A
IN,Hindi,India,RAJASTHAN,08,UDAIPUR,130,VALLABHNAGAR,0690,BORTALAI,106873,081300690106873,North,Rajasthani,313603,A
IN,Hindi,India,RAJASTHAN,08,JODHPUR,113,BHOPALGARH,0569,BORVI KHURD,084811,081130569084811,North,Rajasthani,342606,A
IN,Hindi,India,RAJASTHAN,08,UDAIPUR,130,KOTRA,0687,BOTI KALAN,106013,081300687106013,North,Rajasthani,307025,A
IN,Hindi,India,RAJASTHAN,08,PALI,118,BALI,0605,BOYA,091297,081180605091297,North,Rajasthani,306701,A
IN,Hindi,India,RAJASTHAN,08,UDAIPUR,130,SALUMBAR,0692,DAGAR,107269,081300692107269,North,Rajasthani,313026,A
IN,Hindi,India,RAJASTHAN,08,JAIPUR,110,JAMWA RAMGARH,0548,DAGARWARA,080594,081100548080594,North,Rajasthani,303001,A
IN,Hindi,India,RAJASTHAN,08,DAUSA,109,DAUSA,0536,DAGOLAI,078578,081090536078578,North,Rajasthani,303006,A
IN,Hindi,India,RAJASTHAN,08,NAGAUR,112,DEGANA,0563,DAGRI,083316,081120563083316,North,Rajasthani,341503,A
IN,Hindi,India,RAJASTHAN,08,SAWAI MADHOPUR,108,SAWAI MADHOPUR,0531,DAHAKWA,077687,081080531077687,North,Rajasthani,322001,A
IN,Hindi,India,RAJASTHAN,08,CHURU,102,RATANGARH,0485,BHAWANDESAR,070618,081020485070618,North,Rajasthani,331802,A
IN,Hindi,India,RAJASTHAN,08,BHILWARA,122,JAHAZPUR,0636,BHAWANIPURA,095947,081220636095947,North,Rajasthani,311201,A
IN,Hindi,India,RAJASTHAN,08,BUNDI,121,HINDOLI,0622,BHAWANIPURA,093705,081210622093705,North,Rajasthani,323024,A
IN,Hindi,India,RAJASTHAN,08,NAGAUR,112,DEGANA,0563,BHAWARIYA,083324,081120563083324,North,Rajasthani,341301,A
IN,Hindi,India,RAJASTHAN,08,SAWAI MADHOPUR,108,CHAUTH KA BARWARA,0530,BHEDOLA,077577,081080530077577,North,Rajasthani,322702,A
IN,Hindi,India,RAJASTHAN,08,HANUMANGARH,100,PILIBANGA,0469,40 LLW-A,067996,081000469067996,North,Rajasthani,335802,A
IN,Hindi,India,RAJASTHAN,08,GANGANAGAR,099,KARANPUR,0457,41 F-A,064246,080990457064246,North,Rajasthani,335073,A
IN,Hindi,India,RAJASTHAN,08,GANGANAGAR,099,SADULSHAHAR,0459,41 PTP,064752,080990459064752,North,Rajasthani,335062,A
IN,Hindi,India,RAJASTHAN,08,GANGANAGAR,099,KARANPUR,0457,42 F,064247,080990457064247,North,Rajasthani,335040,A
IN,Hindi,India,RAJASTHAN,08,JAISALMER,114,FATEHGARH,0576,BOLA,086506,081140576086506,North,Rajasthani,345027,A
IN,Hindi,India,RAJASTHAN,08,PALI,118,DESURI,0603,BOLA KURA,091117,081180603091117,North,Rajasthani,306503,A
IN,Hindi,India,RAJASTHAN,08,GANGANAGAR,099,PADAMPUR,0460,45 LLW,064956,080990460064956,North,Rajasthani,335041,A
IN,Hindi,India,RAJASTHAN,08,HANUMANGARH,100,HANUMANGARH,0468,46 NGC,067669,081000468067669,North,Rajasthani,335512,A
IN,Hindi,India,RAJASTHAN,08,GANGANAGAR,099,SURATGARH,0465,47 PBN,066829,080990465066829,North,Rajasthani,335704,A
IN,Hindi,India,RAJASTHAN,08,BIKANER,101,KOLAYAT,0476,CHAK NO. 2,069437,081010476069437,North,Rajasthani,334302,A
IN,Hindi,India,RAJASTHAN,08,HANUMANGARH,100,PILIBANGA,0469,47 SSW,068148,081000469068148,North,Rajasthani,335801,A
IN,Hindi,India,RAJASTHAN,08,ALWAR,104,BEHROR,0493,CHAK RAMDAS,071778,081040493071778,North,Rajasthani,301704,A
IN,Hindi,India,RAJASTHAN,08,GANGANAGAR,099,SURATGARH,0465,49 PBN,066831,080990465066831,North,Rajasthani,335704,A
IN,Hindi,India,RAJASTHAN,08,GANGANAGAR,099,GHARSANA,0463,5 KND,065955,080990463065955,North,Rajasthani,335708,A
IN,Hindi,India,RAJASTHAN,08,BHARATPUR,105,BHARATPUR,0511,CHAK UNDRA,074768,081050511074768,North,Rajasthani,321001,A
IN,Hindi,India,RAJASTHAN,08,JAIPUR,110,SANGANER,0545,HARCHANDPURA @ DEOLIYA,080067,081100545080067,North,Rajasthani,303007,A
IN,Hindi,India,RAJASTHAN,08,KOTA,127,SANGOD,0669,BRIJNAGAR,102337,081270669102337,North,Rajasthani,325602,A
IN,Hindi,India,RAJASTHAN,08,JAIPUR,110,CHAKSU,0550,BRIJRAJPURA,080937,081100550080937,North,Rajasthani,303908,A
IN,Hindi,India,RAJASTHAN,08,JODHPUR,113,JODHPUR,0570,BUDH NAGAR,084908,081130570084908,North,Rajasthani,342027,A
IN,Hindi,India,RAJASTHAN,08,BIKANER,101,KOLAYAT,0476,BURJ CHOBDARAN,069395,081010476069395,North,Rajasthani,334302,A
IN,Hindi,India,RAJASTHAN,08,DAUSA,109,LALSOT,0537,BURJA,078761,081090537078761,North,Rajasthani,303505,A
IN,Hindi,India,RAJASTHAN,08,HANUMANGARH,100,TIBI,0467,32 NGC,067354,081000467067354,North,Rajasthani,335512,A
IN,Hindi,India,RAJASTHAN,08,BHARATPUR,105,PAHARI,0505,BURANA,073888,081050505073888,North,Rajasthani,321204,A
IN,Hindi,India,RAJASTHAN,08,BHARATPUR,105,PAHARI,0505,BURANI,073887,081050505073887,North,Rajasthani,321204,A
IN,Hindi,India,RAJASTHAN,08,GANGANAGAR,099,PADAMPUR,0460,33 BB,064921,080990460064921,North,Rajasthani,335024,A
IN,Hindi,India,RAJASTHAN,08,GANGANAGAR,099,PADAMPUR,0460,34 LNP,064965,080990460064965,North,Rajasthani,335041,A
IN,Hindi,India,RAJASTHAN,08,ALWAR,104,MANDAWAR,0494,DHOKAL NAGAR,072035,081040494072035,North,Rajasthani,301427,A
IN,Hindi,India,RAJASTHAN,08,JODHPUR,113,PHALODI,0567,DHOKAL NAGAR,084372,081130567084372,North,Rajasthani,342301,A
IN,Hindi,India,RAJASTHAN,08,HANUMANGARH,100,PILIBANGA,0469,35 MOD,067965,081000469067965,North,Rajasthani,335802,A
IN,Hindi,India,RAJASTHAN,08,ALWAR,104,TIJARA,0496,DHOLI PAHARI,072271,081040496072271,North,Rajasthani,301707,A
IN,Hindi,India,RAJASTHAN,08,GANGANAGAR,099,RAISINGHNAGAR,0461,35 PS,065195,080990461065195,North,Rajasthani,335051,A
IN,Hindi,India,RAJASTHAN,08,BANSWARA,125,KUSHALGARH,0654,DHOLKA NAI,099914,081250654099914,North,Rajasthani,327801,A
IN,Hindi,India,RAJASTHAN,08,GANGANAGAR,099,RAISINGHNAGAR,0461,36 NP,065351,080990461065351,North,Rajasthani,335051,A
IN,Hindi,India,RAJASTHAN,08,BHILWARA,122,MANDAL,0631,DHORAKA BARIYA,095121,081220631095121,North,Rajasthani,311301,A
IN,Hindi,India,RAJASTHAN,08,HANUMANGARH,100,PILIBANGA,0469,37 LLW-B,067994,081000469067994,North,Rajasthani,335802,A
IN,Hindi,India,RAJASTHAN,08,GANGANAGAR,099,RAISINGHNAGAR,0461,37 NP,065343,080990461065343,North,Rajasthani,335051,A
IN,Hindi,India,RAJASTHAN,08,DUNGARPUR,124,SAGWARA,0648,HANELA,098007,081240648098007,North,Rajasthani,314024,A
IN,Hindi,India,RAJASTHAN,08,HANUMANGARH,100,HANUMANGARH,0468,5 KNJ,067719,081000468067719,North,Rajasthani,335065,A
IN,Hindi,India,RAJASTHAN,08,HANUMANGARH,100,SANGARIA,0466,5 KSD,067145,081000466067145,North,Rajasthani,335063,A
IN,Hindi,India,RAJASTHAN,08,GANGANAGAR,099,ANUPGARH,0462,5 ND,065879,080990462065879,North,Rajasthani,335703,A
IN,Hindi,India,RAJASTHAN,08,GANGANAGAR,099,SURATGARH,0465,5 PPM,066876,080990465066876,North,Rajasthani,335523,A
IN,Hindi,India,RAJASTHAN,08,NAGAUR,112,MERTA,0562,DHADHASANI,083158,081120562083158,North,Rajasthani,341510,A
IN,Hindi,India,RAJASTHAN,08,ALWAR,104,RAMGARH,0498,DHADHOLI,072573,081040498072573,North,Rajasthani,301030,A
IN,Hindi,India,RAJASTHAN,08,GANGANAGAR,099,GHARSANA,0463,5 RSM,066348,080990463066348,North,Rajasthani,335707,A
IN,Hindi,India,RAJASTHAN,08,HANUMANGARH,100,TIBI,0467,5 TLW,067416,081000467067416,North,Rajasthani,335512,A
IN,Hindi,India,RAJASTHAN,08,GANGANAGAR,099,KARANPUR,0457,5 U,064147,080990457064147,North,Rajasthani,335073,A
IN,Hindi,India,RAJASTHAN,08,BANSWARA,125,BAGIDORA,0653,DHALAR,099483,081250653099483,North,Rajasthani,327601,A
IN,Hindi,India,RAJASTHAN,08,GANGANAGAR,099,SURATGARH,0465,50 PBN,066832,080990465066832,North,Rajasthani,335805,A
IN,Hindi,India,RAJASTHAN,08,BANSWARA,125,BANSWARA,0652,BODLA,098989,081250652098989,North,Rajasthani,327025,A
IN,Hindi,India,RAJASTHAN,08,GANGANAGAR,099,GANGANAGAR,0458,501 LNP,064563,080990458064563,North,Rajasthani,335002,A
IN,Hindi,India,RAJASTHAN,08,GANGANAGAR,099,KARANPUR,0457,52 F,064284,080990457064284,North,Rajasthani,335024,A
IN,Hindi,India,RAJASTHAN,08,CHITTORGARH,126,BARI SADRI,0664,BOHERA,101619,081260664101619,North,Rajasthani,312404,A
IN,Hindi,India,RAJASTHAN,08,GANGANAGAR,099,PADAMPUR,0460,52 RB,065041,080990460065041,North,Rajasthani,335041,A
IN,Hindi,India,RAJASTHAN,08,BARMER,115,GUDHA MALANI,0581,BOLON KA DER,087750,081150581087750,North,Rajasthani,344704,A
IN,Hindi,India,RAJASTHAN,08,GANGANAGAR,099,PADAMPUR,0460,55 LNP,065090,080990460065090,North,Rajasthani,335061,A
IN,Hindi,India,RAJASTHAN,08,BHARATPUR,105,KUMHER,0510,AJAN,074550,081050510074550,North,Rajasthani,321025,A
IN,Hindi,India,RAJASTHAN,08,BIKANER,101,KHAJUWALA,0478,6 BD -,069741,081010478069741,North,Rajasthani,334023,A
IN,Hindi,India,RAJASTHAN,08,GANGANAGAR,099,GHARSANA,0463,6 DD,066293,080990463066293,North,Rajasthani,335711,A
IN,Hindi,India,RAJASTHAN,08,JAISALMER,114,JAISALMER,0574,AKAL,086170,081140574086170,North,Rajasthani,345001,A
IN,Hindi,India,RAJASTHAN,08,GANGANAGAR,099,ANUPGARH,0462,6 K-A,065732,080990462065732,North,Rajasthani,335711,A
IN,Hindi,India,RAJASTHAN,08,HANUMANGARH,100,SANGARIA,0466,6 KSD,067120,081000466067120,North,Rajasthani,335063,A
IN,Hindi,India,RAJASTHAN,08,SIROHI,117,REODAR,0596,BOOTRI,090338,081170596090338,North,Rajasthani,307026,A
IN,Hindi,India,RAJASTHAN,08,UDAIPUR,130,SALUMBAR,0692,BORAJ MAJAWATAN,107192,081300692107192,North,Rajasthani,313027,A
IN,Hindi,India,RAJASTHAN,08,BANSWARA,125,GHATOL,0650,BORDA,098497,081250650098497,North,Rajasthani,327023,A
IN,Hindi,India,RAJASTHAN,08,KOTA,127,PIPALDA,0665,BORDA,101740,081270665101740,North,Rajasthani,325009,A
IN,Hindi,India,RAJASTHAN,08,JHALAWAR,129,KHANPUR,0678,BORDA MAU,103926,081290678103926,North,Rajasthani,326001,A
IN,Hindi,India,RAJASTHAN,08,BANSWARA,125,BAGIDORA,0653,BORDABRA,099522,081250653099522,North,Rajasthani,327601,A
IN,Hindi,India,RAJASTHAN,08,CHITTORGARH,126,NIMBAHERA,0663,BORDI,101489,081260663101489,North,Rajasthani,312601,A
IN,Hindi,India,RAJASTHAN,08,PRATAPGARH,131,PRATAPGARH,0699,BORI,108574,081310699108574,North,Rajasthani,312616,A
IN,Hindi,India,RAJASTHAN,08,JHALAWAR,129,KHANPUR,0678,BISLAI,103965,081290678103965,North,Rajasthani,326035,A
IN,Hindi,India,RAJASTHAN,08,HANUMANGARH,100,HANUMANGARH,0468,39 SSW,067749,081000468067749,North,Rajasthani,335801,A
IN,Hindi,India,RAJASTHAN,08,PALI,118,ROHAT,0600,HANJAWA,090751,081180600090751,North,Rajasthani,306421,A
IN,Hindi,India,RAJASTHAN,08,BARAN,128,SHAHBAD,0675,HANOTIYA,103184,081280675103184,North,Rajasthani,325217,A
IN,Hindi,India,RAJASTHAN,08,BIKANER,101,CHHATARGARH,0479,4 AWM,069816,081010479069816,North,Rajasthani,334021,A
IN,Hindi,India,RAJASTHAN,08,GANGANAGAR,099,SADULSHAHAR,0459,4 BGS,064648,080990459064648,North,Rajasthani,335062,A
IN,Hindi,India,RAJASTHAN,08,CHURU,102,RAJGARH,0482,HANSIYAWAS,070088,081020482070088,North,Rajasthani,331023,A
IN,Hindi,India,RAJASTHAN,08,GANGANAGAR,099,RAISINGHNAGAR,0461,4 BWSM,065370,080990461065370,North,Rajasthani,335051,A
IN,Hindi,India,RAJASTHAN,08,JODHPUR,113,PHALODI,0567,HANUMAN NAGAR,084448,081130567084448,North,Rajasthani,342302,A
IN,Hindi,India,RAJASTHAN,08,JODHPUR,113,SHERGARH,0571,HANUMAN NAGAR,085076,081130571085076,North,Rajasthani,342306,A
IN,Hindi,India,RAJASTHAN,08,JHUJHUNU,103,JHUNJHUNUN,0487,HANUMANPURA,071051,081030487071051,North,Rajasthani,333704,A
IN,Hindi,India,RAJASTHAN,08,KARAULI,107,KARAULI,0523,HANUMANPURA,076790,081070523076790,North,Rajasthani,322255,A
IN,Hindi,India,RAJASTHAN,08,GANGANAGAR,099,PADAMPUR,0460,4 EE,064941,080990460064941,North,Rajasthani,335021,A
IN,Hindi,India,RAJASTHAN,08,GANGANAGAR,099,SURATGARH,0465,4 FDM-A,066758,080990465066758,North,Rajasthani,335704,A
IN,Hindi,India,RAJASTHAN,08,GANGANAGAR,099,GHARSANA,0463,4 GM-A,066191,080990463066191,North,Rajasthani,335707,A
IN,Hindi,India,RAJASTHAN,08,KOTA,127,RAMGANJ MANDI,0668,BOODHAN KHERI,102287,081270668102287,North,Rajasthani,326519,A
IN,Hindi,India,RAJASTHAN,08,BARMER,115,GUDHA MALANI,0581,BOOL,087737,081150581087737,North,Rajasthani,344704,A
IN,Hindi,India,RAJASTHAN,08,GANGANAGAR,099,PADAMPUR,0460,4 JJ,064922,080990460064922,North,Rajasthani,335024,A
IN,Hindi,India,RAJASTHAN,08,GANGANAGAR,099,ANUPGARH,0462,4 K-B,065778,080990462065778,North,Rajasthani,335711,A
IN,Hindi,India,RAJASTHAN,08,BARAN,128,KISHANGANJ,0674,BORDA,103112,081280674103112,North,Rajasthani,325224,A
IN,Hindi,India,RAJASTHAN,08,BARAN,128,CHHIPABAROD,0677,BORDA,103687,081280677103687,North,Rajasthani,325221,A
IN,Hindi,India,RAJASTHAN,08,GANGANAGAR,099,PADAMPUR,0460,4 KK,064947,080990460064947,North,Rajasthani,335022,A
IN,Hindi,India,RAJASTHAN,08,HANUMANGARH,100,RAWATSAR,0470,4 KKSM,068531,081000470068531,North,Rajasthani,335523,A
IN,Hindi,India,RAJASTHAN,08,PALI,118,JAITARAN,0597,BANKAS,090358,081180597090358,North,Rajasthani,306301,A
IN,Hindi,India,RAJASTHAN,08,GANGANAGAR,099,GHARSANA,0463,4 KPD,066088,080990463066088,North,Rajasthani,335708,A
IN,Hindi,India,RAJASTHAN,08,GANGANAGAR,099,GHARSANA,0463,4 RJM,066121,080990463066121,North,Rajasthani,335707,A
IN,Hindi,India,RAJASTHAN,08,BIKANER,101,KHAJUWALA,0478,40 KYD,069726,081010478069726,North,Rajasthani,334023,A
IN,Hindi,India,RAJASTHAN,08,BARAN,128,SHAHBAD,0675,BANS KHERI,103282,081280675103282,North,Rajasthani,325217,A
IN,Hindi,India,RAJASTHAN,08,JHALAWAR,129,PIRAWA,0683,BANS KHERI,105180,081290683105180,North,Rajasthani,326034,A
IN,Hindi,India,RAJASTHAN,08,JHALAWAR,129,AKLERA,0680,BANS KHERI LODHAN,104614,081290680104614,North,Rajasthani,326033,A
IN,Hindi,India,RAJASTHAN,08,KARAULI,107,MANDRAIL,0524,CHAK MANDRAIL,076856,081070524076856,North,Rajasthani,322251,A
IN,Hindi,India,RAJASTHAN,08,AJMER,119,KISHANGARH,0606,CHAK MOTIPURA,091416,081190606091416,North,Rajasthani,305815,A
IN,Hindi,India,RAJASTHAN,08,BHARATPUR,105,BHARATPUR,0511,CHAK NAGLA KARANSINGH,074716,081050511074716,North,Rajasthani,321026,A
IN,Hindi,India,RAJASTHAN,08,DHOLPUR,106,DHAULPUR,0518,BRETHA,075873,081060518075873,North,Rajasthani,328024,A
IN,Hindi,India,RAJASTHAN,08,BUNDI,121,BUNDI,0626,BUDHPURA (CT),094557,081210626094557,North,Rajasthani,323022,A
IN,Hindi,India,RAJASTHAN,08,DUNGARPUR,124,SIMALWARA,0649,BUJWARA,098414,081240649098414,North,Rajasthani,314030,A
IN,Hindi,India,RAJASTHAN,08,UDAIPUR,130,SALUMBAR,0692,BORI JAGEER,107333,081300692107333,North,Rajasthani,313038,A
IN,Hindi,India,RAJASTHAN,08,BANSWARA,125,BAGIDORA,0653,BORKUNDA,099512,081250653099512,North,Rajasthani,327601,A
IN,Hindi,India,RAJASTHAN,08,BANSWARA,125,KUSHALGARH,0654,BORKUNDA,099811,081250654099811,North,Rajasthani,327602,A
IN,Hindi,India,RAJASTHAN,08,BANSWARA,125,GHATOL,0650,BORPI KERENG,098527,081250650098527,North,Rajasthani,314027,A
IN,Hindi,India,RAJASTHAN,08,JALOR,116,BHINMAL,0588,BORTA,089340,081160588089340,North,Rajasthani,343029,A
IN,Hindi,India,RAJASTHAN,08,BUNDI,121,KESHORAIPATAN,0625,BOYA KHERA,094279,081210625094279,North,Rajasthani,323603,A
IN,Hindi,India,RAJASTHAN,08,BANSWARA,125,BANSWARA,0652,DEOKA,099202,081250652099202,North,Rajasthani,327602,A
IN,Hindi,India,RAJASTHAN,08,NAGAUR,112,MAKRANA,0565,DEOLA,083633,081120565083633,North,Rajasthani,341319,A
IN,Hindi,India,RAJASTHAN,08,PALI,118,RAIPUR,0598,DEOLI KALAN,090462,081180598090462,North,Rajasthani,306306,A
IN,Hindi,India,RAJASTHAN,08,TONK,120,TONK,0618,DEOPURA,093105,081200618093105,North,Rajasthani,304001,A
IN,Hindi,India,RAJASTHAN,08,JAISALMER,114,FATEHGARH,0576,DEORA,086575,081140576086575,North,Rajasthani,345001,A
IN,Hindi,India,RAJASTHAN,08,ALWAR,104,BEHROR,0493,ADEEND,071783,081040493071783,North,Rajasthani,301704,A
IN,Hindi,India,RAJASTHAN,08,AJMER,119,SARWAR,0613,DEORIYA,092309,081190613092309,North,Rajasthani,305412,A
IN,Hindi,India,RAJASTHAN,08,RAJSAMAND,123,DEOGARH,0640,DEORIYA,096664,081230640096664,North,Rajasthani,313332,A
IN,Hindi,India,RAJASTHAN,08,PALI,118,JAITARAN,0597,DEORIYA RAIPUTAN,090443,081180597090443,North,Rajasthani,306101,A
IN,Hindi,India,RAJASTHAN,08,BARMER,115,GUDHA MALANI,0581,DEOSAR,087782,081150581087782,North,Rajasthani,344704,A
IN,Hindi,India,RAJASTHAN,08,UDAIPUR,130,SALUMBAR,0692,BHAKROTON KA GURHA,107353,081300692107353,North,Rajasthani,313038,A
IN,Hindi,India,RAJASTHAN,08,CHURU,102,TARANAGAR,0481,BHALAU TEEBA,069986,081020481069986,North,Rajasthani,331304,A
IN,Hindi,India,RAJASTHAN,08,BARMER,115,CHOHTAN,0584,BHALGAON,089060,081150584089060,North,Rajasthani,344706,A
IN,Hindi,India,RAJASTHAN,08,UDAIPUR,130,KOTRA,0687,BUDHIYA,106042,081300687106042,North,Rajasthani,307025,A
IN,Hindi,India,RAJASTHAN,08,GANGANAGAR,099,ANUPGARH,0462,3 UDM-B,065597,080990462065597,North,Rajasthani,335701,A
IN,Hindi,India,RAJASTHAN,08,KARAULI,107,MANDRAIL,0524,BUGDAR,076839,081070524076839,North,Rajasthani,322249,A
IN,Hindi,India,RAJASTHAN,08,GANGANAGAR,099,ANUPGARH,0462,30 APD,065624,080990462065624,North,Rajasthani,335701,A
IN,Hindi,India,RAJASTHAN,08,GANGANAGAR,099,SURATGARH,0465,31 PBN,066803,080990465066803,North,Rajasthani,335804,A
IN,Hindi,India,RAJASTHAN,08,AJMER,119,SARWAR,0613,BHATOLAO,092354,081190613092354,North,Rajasthani,305403,A
IN,Hindi,India,RAJASTHAN,08,CHITTORGARH,126,BARI SADRI,0664,BHATOLI,101540,081260664101540,North,Rajasthani,312403,A